{"type":"FeatureCollection","features":[{"type":"Feature","properties":{"featurecla":"Admin-0 country","scalerank":0,"LABELRANK":3,"SOVEREIGNT":"Ukraine","SOV_A3":"UKR","ADM0_DIF":0,"LEVEL":2,"TYPE":"Sovereign country","TLC":"1","ADMIN":"Ukraine","ADM0_A3":"UKR","GEOU_DIF":0,"GEOUNIT":"Ukraine","GU_A3":"UKR","SU_DIF":0,"SUBUNIT":"Ukraine","SU_A3":"UKR","BRK_DIFF":0,"NAME":"Ukraine","NAME_LONG":"Ukraine","BRK_A3":"UKR","BRK_NAME":"Ukraine","BRK_GROUP":null,"ABBREV":"Ukr.","POSTAL":"UA","FORMAL_EN":"Ukraine","FORMAL_FR":null,"NAME_CIAWF":"Ukraine","NOTE_ADM0":null,"NOTE_BRK":null,"NAME_SORT":"Ukraine","NAME_ALT":null,"MAPCOLOR7":5,"MAPCOLOR8":1,"MAPCOLOR9":6,"MAPCOLOR13":3,"POP_EST":44385155,"POP_RANK":15,"POP_YEAR":2019,"GDP_MD":153781,"GDP_YEAR":2019,"ECONOMY":"6. Developing region","INCOME_GRP":"4. Lower middle income","FIPS_10":"UP","ISO_A2":"UA","ISO_A2_EH":"UA","ISO_A3":"UKR","ISO_A3_EH":"UKR","ISO_N3":"804","ISO_N3_EH":"804","UN_A3":"804","WB_A2":"UA","WB_A3":"UKR","WOE_ID":23424976,"WOE_ID_EH":23424976,"WOE_NOTE":"Exact WOE match as country","ADM0_ISO":"UKR","ADM0_DIFF":null,"ADM0_TLC":"UKR","ADM0_A3_US":"UKR","ADM0_A3_FR":"UKR","ADM0_A3_RU":"UKR","ADM0_A3_ES":"UKR","ADM0_A3_CN":"UKR","ADM0_A3_TW":"UKR","ADM0_A3_IN":"UKR","ADM0_A3_NP":"UKR","ADM0_A3_PK":"UKR","ADM0_A3_DE":"UKR","ADM0_A3_GB":"UKR","ADM0_A3_BR":"UKR","ADM0_A3_IL":"UKR","ADM0_A3_PS":"UKR","ADM0_A3_SA":"UKR","ADM0_A3_EG":"UKR","ADM0_A3_MA":"UKR","ADM0_A3_PT":"UKR","ADM0_A3_AR":"UKR","ADM0_A3_JP":"UKR","ADM0_A3_KO":"UKR","ADM0_A3_VN":"UKR","ADM0_A3_TR":"UKR","ADM0_A3_ID":"UKR","ADM0_A3_PL":"UKR","ADM0_A3_GR":"UKR","ADM0_A3_IT":"UKR","ADM0_A3_NL":"UKR","ADM0_A3_SE":"UKR","ADM0_A3_BD":"UKR","ADM0_A3_UA":"UKR","ADM0_A3_UN":-99,"ADM0_A3_WB":-99,"CONTINENT":"Europe","REGION_UN":"Europe","SUBREGION":"Eastern Europe","REGION_WB":"Europe \u0026 Central Asia","NAME_LEN":7,"LONG_LEN":7,"ABBREV_LEN":4,"TINY":-99,"HOMEPART":1,"MIN_ZOOM":0,"MIN_LABEL":2.7,"MAX_LABEL":7,"LABEL_X":32.140865,"LABEL_Y":49.724739,"NE_ID":1159321345,"WIKIDATAID":"Q212","NAME_AR":"ШЈЩ€ЩѓШ±Ш§Щ†ЩЉШ§","NAME_BN":"а¦‡а¦‰а¦•а§Ќа¦°а§‡а¦Ё","NAME_DE":"Ukraine","NAME_EN":"Ukraine","NAME_ES":"Ucrania","NAME_FA":"Ш§Щ€Ъ©Ш±Ш§ЫЊЩ†","NAME_FR":"Ukraine","NAME_EL":"ОџП…ОєПЃО±ОЅОЇО±","NAME_HE":"ЧђЧ•Ч§ЧЁЧђЧ™Ч Ч”","NAME_HI":"а¤ЇаҐЃа¤•аҐЌа¤°аҐ‡а¤Ё","NAME_HU":"Ukrajna","NAME_ID":"Ukraina","NAME_IT":"Ucraina","NAME_JA":"г‚¦г‚Їгѓ©г‚¤гѓЉ","NAME_KO":"мљ°нЃ¬лќјмќґл‚","NAME_NL":"OekraГЇne","NAME_PL":"Ukraina","NAME_PT":"UcrГўnia","NAME_RU":"РЈРєСЂР°РёРЅР°","NAME_SV":"Ukraina","NAME_TR":"Ukrayna","NAME_UK":"РЈРєСЂР°С—РЅР°","NAME_UR":"ЫЊЩ€Ъ©Ш±ЫЊЩ†","NAME_VI":"Ukraina","NAME_ZH":"д№Ње…‹е…°","NAME_ZHT":"зѓЏе…‹и­","FCLASS_ISO":"Admin-0 country","TLC_DIFF":null,"FCLASS_TLC":"Admin-0 country","FCLASS_US":null,"FCLASS_FR":null,"FCLASS_RU":null,"FCLASS_ES":null,"FCLASS_CN":null,"FCLASS_TW":null,"FCLASS_IN":null,"FCLASS_NP":null,"FCLASS_PK":null,"FCLASS_DE":null,"FCLASS_GB":null,"FCLASS_BR":null,"FCLASS_IL":null,"FCLASS_PS":null,"FCLASS_SA":null,"FCLASS_EG":null,"FCLASS_MA":null,"FCLASS_PT":null,"FCLASS_AR":null,"FCLASS_JP":null,"FCLASS_KO":null,"FCLASS_VN":null,"FCLASS_TR":null,"FCLASS_ID":null,"FCLASS_PL":null,"FCLASS_GR":null,"FCLASS_IT":null,"FCLASS_NL":null,"FCLASS_SE":null,"FCLASS_BD":null,"FCLASS_UA":null},"bbox":[22.13284,45.213568,40.159543,52.368949],"geometry":{"type":"MultiPolygon","coordinates":[[[[31.764345,52.100568],[31.82584,52.104056],[31.858706,52.09987],[31.882064,52.086408],[31.88749,52.070027],[31.887748,52.051553],[31.892037,52.036179],[31.910383,52.029073],[31.927229,52.031089],[31.980559,52.047625],[32.016939,52.049796],[32.077142,52.039951],[32.095591,52.040726],[32.233309,52.080853],[32.277699,52.102661],[32.306741,52.141185],[32.318833,52.201414],[32.328238,52.219165],[32.33785,52.22547],[32.350149,52.229888],[32.361311,52.235908],[32.366995,52.2472],[32.363275,52.255726],[32.344465,52.276526],[32.339504,52.287249],[32.35356,52.321588],[32.394281,52.326807],[32.48058,52.307144],[32.528433,52.316213],[32.725423,52.252083],[32.755602,52.252393],[32.814823,52.262005],[32.844176,52.262341],[32.861022,52.257199],[32.890788,52.242316],[32.908978,52.241102],[32.926858,52.246915],[33.030107,52.303604],[33.048246,52.309082],[33.057289,52.308643],[33.070415,52.304173],[33.079613,52.305594],[33.087365,52.310762],[33.099044,52.324766],[33.108862,52.328332],[33.127983,52.332724],[33.14085,52.340372],[33.166637,52.360061],[33.182863,52.367296],[33.196506,52.368949],[33.294329,52.357296],[33.358976,52.357555],[33.376185,52.355255],[33.400576,52.344343],[33.403676,52.342956],[33.419334,52.338331],[33.437318,52.339158],[33.451787,52.345256],[33.465326,52.352749],[33.480519,52.357761],[33.499433,52.340992],[33.493025,52.303139],[33.510078,52.287533],[33.531679,52.288825],[33.600202,52.330786],[33.687948,52.355823],[33.733579,52.360991],[33.778951,52.360061],[33.804065,52.354609],[33.815227,52.345075],[33.823392,52.331458],[33.839102,52.313914],[33.858739,52.302157],[33.9007,52.285854],[33.919511,52.269756],[33.944419,52.235779],[33.957751,52.224695],[34.021933,52.1979],[34.038883,52.18648],[34.05573,52.170331],[34.065341,52.158626],[34.071026,52.148963],[34.07361,52.139558],[34.07392,52.128318],[34.05666,52.105813],[34.05666,52.100387],[34.06007,52.083179],[34.062551,52.050209],[34.068235,52.031011],[34.080328,52.013622],[34.101102,51.992512],[34.104409,51.975304],[34.096657,51.960576],[34.096244,51.951817],[34.146163,51.95161],[34.166421,51.942257],[34.203421,51.91231],[34.209415,51.908796],[34.222644,51.903164],[34.228432,51.899262],[34.231016,51.894534],[34.234633,51.880736],[34.23422,51.878282],[34.246002,51.875465],[34.264916,51.881201],[34.276698,51.881227],[34.294578,51.873889],[34.327754,51.850505],[34.347288,51.841695],[34.371101,51.826811],[34.385735,51.817665],[34.41271,51.777693],[34.414157,51.736456],[34.37633,51.708602],[34.3569,51.705553],[34.298195,51.706147],[34.127973,51.680748],[34.089113,51.666615],[34.079501,51.643102],[34.090663,51.633206],[34.12601,51.627005],[34.140066,51.621191],[34.14451,51.613776],[34.148851,51.593209],[34.152985,51.583984],[34.160323,51.576129],[34.202387,51.546157],[34.21541,51.531998],[34.223678,51.514764],[34.225952,51.492879],[34.223781,51.482363],[34.214996,51.464663],[34.212102,51.455026],[34.213239,51.44482],[34.217063,51.43606],[34.219647,51.427275],[34.217063,51.417069],[34.208795,51.411463],[34.186988,51.40831],[34.181923,51.402342],[34.185851,51.394151],[34.195979,51.385624],[34.21572,51.373765],[34.230499,51.367667],[34.247346,51.363429],[34.264399,51.361207],[34.280315,51.361259],[34.300159,51.36839],[34.308737,51.33462],[34.283623,51.301237],[34.243935,51.274081],[34.185954,51.248914],[34.257888,51.229561],[34.281762,51.226435],[34.299539,51.231629],[34.336953,51.251136],[34.371783,51.256847],[34.40899,51.253126],[34.480407,51.236977],[34.513479,51.229561],[34.578178,51.236693],[34.608357,51.234006],[34.622413,51.224756],[34.628511,51.211061],[34.633162,51.19561],[34.642774,51.180624],[34.65745,51.171658],[34.674917,51.167679],[34.74809,51.164733],[34.817544,51.174733],[34.899606,51.196463],[34.946115,51.214291],[34.961824,51.215325],[34.980324,51.209537],[34.999445,51.202095],[35.018772,51.20455],[35.038719,51.210157],[35.059389,51.212327],[35.078716,51.207625],[35.091325,51.197677],[35.09918,51.183182],[35.123778,51.091327],[35.143622,51.058487],[35.172561,51.040632],[35.20646,51.038927],[35.27426,51.048797],[35.308676,51.047325],[35.328417,51.043165],[35.3464,51.036602],[35.355082,51.025595],[35.34671,51.008257],[35.332551,50.999937],[35.278084,50.992651],[35.282218,50.98154],[35.282218,50.961107],[35.282218,50.954255],[35.284802,50.944333],[35.293587,50.937615],[35.317151,50.934205],[35.32914,50.929089],[35.341749,50.91586],[35.34299,50.904129],[35.340406,50.89183],[35.341439,50.876482],[35.348571,50.86377],[35.369034,50.846045],[35.377716,50.833746],[35.37968,50.819586],[35.377406,50.807546],[35.37906,50.797211],[35.393116,50.788374],[35.41823,50.778917],[35.429393,50.772148],[35.438488,50.762381],[35.447066,50.73432],[35.443759,50.709464],[35.445412,50.687502],[35.468873,50.668536],[35.391565,50.646367],[35.376166,50.634585],[35.377716,50.621821],[35.425258,50.500485],[35.446446,50.476042],[35.480139,50.466895],[35.501946,50.464311],[35.52272,50.459505],[35.540807,50.450048],[35.554656,50.433253],[35.562304,50.409637],[35.563855,50.391809],[35.570159,50.376461],[35.592173,50.360493],[35.611397,50.351708],[35.631551,50.34499],[35.652118,50.341114],[35.673202,50.340184],[35.69221,50.344168],[35.69687,50.345145],[35.710306,50.355635],[35.721261,50.36871],[35.737694,50.381577],[35.746169,50.383954],[35.765393,50.384523],[35.774384,50.3869],[35.785547,50.394496],[35.80539,50.412169],[35.819343,50.419042],[35.83743,50.423228],[35.931894,50.430153],[36.105837,50.42111],[36.133226,50.411601],[36.14077,50.392946],[36.169296,50.383696],[36.269031,50.281376],[36.291976,50.274038],[36.31585,50.274865],[36.339518,50.28148],[36.361429,50.29166],[36.380962,50.304062],[36.38799,50.30644],[36.400186,50.306646],[36.410005,50.304579],[36.430572,50.296879],[36.452689,50.293572],[36.480181,50.28086],[36.512117,50.276416],[36.521109,50.27409],[36.536405,50.267527],[36.538886,50.265047],[36.536095,50.260913],[36.533925,50.238692],[36.531651,50.228822],[36.534648,50.219933],[36.549531,50.212182],[36.571028,50.206911],[36.594386,50.20443],[36.616917,50.206394],[36.635831,50.214042],[36.644409,50.222259],[36.660429,50.243859],[36.669834,50.253006],[36.682649,50.260654],[36.848634,50.323699],[36.914056,50.339099],[36.980099,50.342148],[37.051722,50.335327],[37.197037,50.362405],[37.226699,50.377081],[37.285197,50.41527],[37.314755,50.42297],[37.415214,50.431858],[37.435265,50.424934],[37.450251,50.398992],[37.46379,50.366539],[37.480017,50.340029],[37.568177,50.312537],[37.599183,50.290885],[37.60156,50.249027],[37.591534,50.225308],[37.588641,50.21461],[37.590294,50.20381],[37.597116,50.196937],[37.631842,50.174096],[37.72765,50.078701],[37.76341,50.062578],[37.842785,50.039117],[37.881749,50.023046],[37.915856,50.003306],[37.946552,49.978191],[37.979004,49.941449],[37.980038,49.939589],[37.995334,49.921347],[37.995851,49.905895],[38.000398,49.899798],[38.022924,49.909142],[38.066544,49.927238],[38.079153,49.929925],[38.090315,49.928426],[38.108402,49.920675],[38.119047,49.919176],[38.166176,49.94057],[38.171344,49.984082],[38.164109,50.030384],[38.173928,50.06015],[38.189844,50.062785],[38.25382,50.059064],[38.281208,50.062423],[38.299915,50.060511],[38.314074,50.049504],[38.34415,49.992092],[38.356036,49.980568],[38.376293,49.974935],[38.420114,49.971783],[38.437788,49.967287],[38.461145,49.9569],[38.497526,49.948167],[38.570183,49.956642],[38.619482,49.950751],[38.628887,49.953334],[38.637776,49.95721],[38.662167,49.962585],[38.664647,49.965168],[38.664337,49.962688],[38.672812,49.942999],[38.675603,49.927031],[38.680977,49.918298],[38.687282,49.913802],[38.747846,49.885432],[38.852233,49.865795],[38.886339,49.845176],[38.910524,49.820578],[38.937395,49.803473],[39.032273,49.807349],[39.04912,49.810552],[39.068344,49.821094],[39.099866,49.851635],[39.117126,49.864399],[39.15578,49.873598],[39.181006,49.859487],[39.182755,49.858508],[39.238049,49.765129],[39.26089,49.74451],[39.289932,49.732056],[39.327656,49.72632],[39.36724,49.731849],[39.405997,49.744252],[39.443618,49.749523],[39.479895,49.733606],[39.499118,49.728129],[39.557513,49.723994],[39.570432,49.713297],[39.581594,49.690715],[39.597407,49.647978],[39.622935,49.613459],[39.653321,49.599816],[39.688667,49.59346],[39.729182,49.580799],[39.781065,49.548398],[39.801529,49.542197],[39.828711,49.541473],[39.859406,49.545556],[39.889379,49.553256],[39.9147,49.562971],[39.974025,49.602555],[39.998106,49.608239],[40.017743,49.607878],[40.115515,49.590566],[40.118504,49.588451],[40.130708,49.579817],[40.126057,49.559095],[40.110657,49.545349],[40.072003,49.530673],[40.05433,49.519769],[40.0349,49.487058],[40.040894,49.455484],[40.061978,49.425821],[40.101355,49.385462],[40.148071,49.349599],[40.159543,49.333579],[40.157166,49.315854],[40.142697,49.281903],[40.141663,49.245781],[40.134015,49.236272],[40.110244,49.227642],[40.090917,49.217255],[40.057741,49.182787],[40.038414,49.168524],[39.979606,49.141859],[39.952114,49.124548],[39.930927,49.10057],[39.926069,49.086514],[39.923382,49.057989],[39.918731,49.047808],[39.907259,49.042589],[39.891342,49.041762],[39.86199,49.045121],[39.831501,49.045276],[39.748922,49.026208],[39.698279,49.028378],[39.681123,49.020316],[39.673991,48.970139],[39.687531,48.957581],[39.707788,48.948796],[39.725978,48.937014],[39.739414,48.918979],[39.747372,48.905336],[39.758741,48.895415],[39.782305,48.888438],[39.861887,48.876449],[39.89651,48.879912],[39.908189,48.878413],[39.918628,48.87247],[39.937644,48.856244],[39.950357,48.852781],[39.972268,48.860326],[39.989941,48.875674],[40.008855,48.887818],[40.034279,48.885596],[40.053813,48.869215],[40.05278,48.849733],[40.038724,48.829992],[40.019603,48.813146],[39.975265,48.789685],[39.934957,48.786687],[39.824163,48.815626],[39.801219,48.814903],[39.779411,48.80772],[39.759361,48.792837],[39.751196,48.781881],[39.744478,48.770513],[39.736313,48.761521],[39.711405,48.754803],[39.70293,48.746586],[39.641849,48.611711],[39.63172,48.586906],[39.670271,48.588405],[39.690114,48.593676],[39.809177,48.583754],[39.835325,48.57347],[39.855066,48.556107],[39.862714,48.530062],[39.863851,48.52275],[39.866124,48.51704],[39.868501,48.512906],[39.869535,48.509908],[39.865401,48.501485],[39.855996,48.499366],[39.846694,48.499831],[39.842146,48.499056],[39.84473,48.483502],[39.854342,48.47544],[39.864781,48.469833],[39.8962,48.423919],[39.906845,48.398339],[39.914493,48.384696],[39.924105,48.376118],[39.901471,48.361184],[39.884108,48.346352],[39.815895,48.308164],[39.884831,48.278992],[39.905192,48.280646],[39.957385,48.293384],[39.978882,48.290077],[39.993248,48.27323],[39.990665,48.253748],[39.977642,48.235455],[39.960485,48.222071],[39.912633,48.197679],[39.89372,48.182977],[39.843077,48.119751],[39.831191,48.099985],[39.829021,48.076782],[39.844317,48.045673],[39.842973,48.036397],[39.840286,48.035002],[39.833568,48.03619],[39.778791,48.029214],[39.768146,48.024331],[39.759878,48.014951],[39.761945,48.009784],[39.770109,48.004099],[39.780238,47.993144],[39.794397,47.971311],[39.796154,47.961363],[39.793984,47.945705],[39.79047,47.937747],[39.779825,47.922477],[39.777034,47.913743],[39.777551,47.906586],[39.782098,47.892892],[39.782925,47.886561],[39.775587,47.85801],[39.759051,47.832947],[39.733833,47.815997],[39.70076,47.811527],[39.600611,47.829485],[39.570018,47.830932],[39.50935,47.822767],[39.479895,47.826126],[39.457054,47.831293],[39.413956,47.82318],[39.391631,47.822612],[39.373545,47.828296],[39.340058,47.843567],[39.319698,47.846021],[39.173557,47.837055],[39.133249,47.829536],[39.113509,47.828555],[39.092942,47.832094],[39.039095,47.856925],[39.03618,47.857003],[38.877244,47.86124],[38.830942,47.848243],[38.796215,47.819925],[38.770997,47.780831],[38.753324,47.735149],[38.745159,47.693111],[38.734514,47.677143],[38.713016,47.675722],[38.677876,47.685178],[38.662167,47.683292],[38.643357,47.673525],[38.606356,47.645052],[38.587649,47.634303],[38.562225,47.626629],[38.352935,47.607095],[38.319035,47.591308],[38.293404,47.562783],[38.274387,47.527849],[38.260331,47.492942],[38.263638,47.421706],[38.257954,47.393232],[38.233356,47.362407],[38.203383,47.334631],[38.190568,47.316906],[38.188707,47.30099],[38.201006,47.290629],[38.220333,47.288794],[38.257644,47.292747],[38.27573,47.291817],[38.291853,47.287037],[38.300949,47.27603],[38.298158,47.256031],[38.284722,47.241149],[38.263948,47.231537],[38.241314,47.22394],[38.222504,47.215233],[38.203487,47.192314],[38.196976,47.162394],[38.20142,47.130742],[38.216645,47.103258],[38.216482,47.103095],[38.1963,47.089504],[38.142263,47.037665],[38.108084,47.026353],[38.130382,47.058417],[38.130056,47.074652],[38.10434,47.08161],[38.071544,47.099799],[38.06658,47.09809],[38.061046,47.094957],[38.035167,47.084296],[38.026215,47.08161],[37.987641,47.091946],[37.962087,47.095933],[37.95045,47.091254],[37.861095,47.101508],[37.753266,47.075263],[37.710297,47.074164],[37.58074,47.090399],[37.546397,47.08161],[37.482921,47.035956],[37.37794,46.933905],[37.351736,46.898749],[37.335216,46.882473],[37.312999,46.875556],[37.317393,46.900824],[37.295421,46.920233],[37.260753,46.932685],[37.227061,46.936998],[37.208181,46.93358],[37.162283,46.909084],[37.04656,46.877753],[37.028819,46.875556],[37.017751,46.871283],[36.984874,46.852484],[36.973806,46.848293],[36.938813,46.839504],[36.886241,46.804023],[36.853689,46.800482],[36.862478,46.776923],[36.849132,46.754462],[36.8296,46.731879],[36.819591,46.707668],[36.812266,46.680569],[36.793712,46.653632],[36.769298,46.637397],[36.743826,46.642157],[36.743826,46.649604],[36.751231,46.649604],[36.771658,46.643459],[36.790294,46.671291],[36.802257,46.707017],[36.802501,46.724758],[36.794281,46.729193],[36.758067,46.758857],[36.742849,46.764716],[36.710134,46.772773],[36.696056,46.779975],[36.67921,46.773017],[36.661632,46.773749],[36.633962,46.779975],[36.617035,46.776679],[36.605968,46.769436],[36.59783,46.762152],[36.590017,46.758857],[36.524099,46.758857],[36.482677,46.741685],[36.432465,46.734849],[36.400157,46.723944],[36.371104,46.708441],[36.303477,46.659247],[36.284353,46.63642],[36.278331,46.607408],[36.270844,46.607408],[36.271169,46.622219],[36.267589,46.625556],[36.257823,46.621731],[36.247895,46.619045],[36.246755,46.612738],[36.245779,46.610826],[36.240733,46.61994],[36.243337,46.624091],[36.244477,46.63052],[36.244314,46.635321],[36.232921,46.640692],[36.230642,46.642157],[36.221853,46.654039],[36.216645,46.658677],[36.209972,46.662665],[36.189464,46.669013],[36.171723,46.668606],[36.134451,46.662665],[36.062022,46.670111],[35.925548,46.652289],[35.901622,46.652737],[35.827159,46.623358],[35.771169,46.601264],[35.741954,46.584418],[35.661306,46.519273],[35.628673,46.498481],[35.510509,46.457221],[35.491466,46.447984],[35.475759,46.435696],[35.445486,46.405992],[35.430024,46.395575],[35.39503,46.378607],[35.380138,46.368476],[35.284516,46.259223],[35.279552,46.255154],[35.26352,46.242255],[35.209483,46.169867],[35.184744,46.145494],[35.161794,46.128241],[35.121104,46.118476],[35.096528,46.104193],[35.062266,46.098619],[35.038585,46.086086],[35.000011,46.073635],[34.982107,46.077826],[34.985362,46.08747],[35.0171,46.112779],[35.051931,46.128241],[35.049083,46.132066],[35.044444,46.141913],[35.148936,46.16413],[35.20045,46.18301],[35.227875,46.221747],[35.251801,46.24022],[35.262218,46.25731],[35.291352,46.293362],[35.32781,46.319241],[35.342133,46.335761],[35.346039,46.361029],[35.328868,46.348049],[35.311534,46.337633],[35.291759,46.336412],[35.267589,46.35106],[35.258556,46.373358],[35.264496,46.399807],[35.284516,46.437405],[35.27711,46.440741],[35.260916,46.441596],[35.250499,46.443549],[35.243175,46.446967],[35.230317,46.455512],[35.21461,46.462633],[35.201671,46.476304],[35.191417,46.494289],[35.188324,46.512437],[35.166677,46.49315],[35.174001,46.473334],[35.192068,46.455064],[35.201996,46.440497],[35.205089,46.427558],[35.210704,46.420152],[35.213715,46.411811],[35.209483,46.39643],[35.201508,46.385321],[35.167817,46.361029],[35.108409,46.297756],[35.105072,46.295071],[35.075043,46.271064],[35.030772,46.251776],[34.936046,46.235419],[34.926524,46.235053],[34.914073,46.238105],[34.908051,46.244289],[34.907237,46.251654],[34.904796,46.255683],[34.893565,46.251776],[34.886567,46.242743],[34.885427,46.231391],[34.882172,46.221747],[34.838878,46.207668],[34.835134,46.203192],[34.817638,46.186225],[34.812266,46.176663],[34.81129,46.166246],[34.813243,46.158271],[34.819102,46.141913],[34.824229,46.077948],[34.828949,46.063422],[34.838552,46.047553],[34.87436,45.926093],[34.883474,45.912828],[34.895193,45.901028],[34.90504,45.888617],[34.958181,45.789537],[35.001891,45.729003],[34.975667,45.717322],[34.952331,45.721989],[34.917328,45.747658],[34.870656,45.773328],[34.809983,45.784996],[34.788981,45.803664],[34.784314,45.829334],[34.784314,45.869004],[34.784314,45.899341],[34.763312,45.932011],[34.735309,45.953013],[34.688637,45.974015],[34.641966,45.981016],[34.599961,45.978683],[34.569625,45.976349],[34.529954,45.981016],[34.52062,45.969348],[34.504285,45.95068],[34.464614,45.955347],[34.434277,45.971682],[34.410942,45.988017],[34.392273,46.009019],[34.378272,46.030021],[34.361937,46.055691],[34.333934,46.069692],[34.301264,46.069692],[34.273261,46.083693],[34.235923,46.097695],[34.20092,46.100028],[34.161249,46.090694],[34.105243,46.095361],[34.067906,46.104696],[34.025902,46.116364],[33.990898,46.130365],[33.944226,46.153701],[33.892888,46.177037],[33.846216,46.195705],[33.801878,46.202706],[33.755207,46.193372],[33.715726,46.195743],[33.67028,46.218106],[33.661623,46.21017],[33.671456,46.172951],[33.660449,46.148184],[33.628517,46.124935],[33.613455,46.145209],[33.596528,46.155748],[33.571544,46.149359],[33.549815,46.13642],[33.532481,46.121527],[33.531261,46.106879],[33.557872,46.094713],[33.557872,46.087307],[33.531261,46.085924],[33.505626,46.080268],[33.495779,46.067857],[33.516287,46.046332],[33.506358,46.04682],[33.485525,46.053168],[33.423839,46.05329],[33.415294,46.058092],[33.384288,46.087592],[33.357758,46.103827],[33.331065,46.107489],[33.310802,46.087307],[33.305837,46.092353],[33.301443,46.093655],[33.296397,46.093573],[33.290294,46.094713],[33.306895,46.106147],[33.317719,46.119696],[33.315684,46.131008],[33.293468,46.135688],[33.21461,46.128241],[33.221853,46.141506],[33.225352,46.15412],[33.235118,46.223822],[33.211925,46.206285],[33.194998,46.178697],[33.175059,46.153144],[33.14324,46.141913],[33.135509,46.140692],[33.122895,46.135891],[33.112804,46.135688],[33.103282,46.138373],[33.081798,46.149359],[33.023448,46.169867],[33.032481,46.141018],[33.01824,46.127672],[32.913097,46.11518],[32.899262,46.11522],[32.891612,46.116685],[32.88266,46.120673],[32.87615,46.121405],[32.853201,46.120347],[32.844574,46.121405],[32.789806,46.134345],[32.766287,46.135688],[32.751313,46.133043],[32.714041,46.120063],[32.588227,46.104397],[32.57781,46.101549],[32.567556,46.096584],[32.551036,46.084296],[32.543712,46.080471],[32.503429,46.076117],[32.302501,46.116685],[32.280528,46.12759],[32.267751,46.126614],[32.262462,46.128241],[32.260509,46.132148],[32.257335,46.144965],[32.255626,46.149359],[32.25172,46.156887],[32.247406,46.170722],[32.241954,46.176663],[32.260916,46.188625],[32.266775,46.19481],[32.269298,46.204576],[32.239268,46.195258],[32.213145,46.193061],[32.187348,46.196723],[32.142589,46.207994],[32.128673,46.209703],[32.115408,46.214545],[32.077891,46.249498],[32.050141,46.266059],[32.018077,46.257514],[31.968435,46.275702],[31.885753,46.320014],[31.884044,46.308661],[31.88795,46.295152],[31.889903,46.28384],[31.882335,46.27912],[31.819184,46.280585],[31.801117,46.285061],[31.785899,46.292385],[31.772472,46.30268],[31.767345,46.318183],[31.779959,46.331773],[31.799815,46.342231],[31.816742,46.347968],[31.837413,46.349555],[31.892589,46.341132],[31.968272,46.35106],[31.977306,46.355292],[32.029633,46.388983],[32.041677,46.390855],[32.055186,46.39057],[32.06186,46.393785],[32.053559,46.405992],[32.007823,46.448961],[31.99171,46.453559],[31.9546,46.450995],[31.910655,46.455878],[31.771658,46.495836],[31.748546,46.499945],[31.72641,46.500881],[31.710704,46.495429],[31.695974,46.484117],[31.690278,46.478583],[31.686534,46.470893],[31.685069,46.461371],[31.686534,46.429877],[31.663585,46.472113],[31.655772,46.478339],[31.641449,46.482082],[31.524425,46.564195],[31.508311,46.587592],[31.540294,46.570054],[31.566661,46.55036],[31.581554,46.545233],[31.756358,46.554267],[31.790212,46.547268],[31.847911,46.523017],[31.851736,46.521959],[31.861827,46.519273],[31.947113,46.519273],[32.033458,46.506293],[32.091156,46.512844],[32.111664,46.512437],[32.221528,46.495429],[32.276134,46.470893],[32.317556,46.464342],[32.361013,46.466864],[32.399669,46.478339],[32.427013,46.498847],[32.408376,46.517279],[32.43572,46.543158],[32.505707,46.584133],[32.52475,46.592719],[32.570974,46.596422],[32.58839,46.604315],[32.60377,46.615709],[32.619395,46.623521],[32.6338,46.633124],[32.645518,46.649604],[32.621837,46.641791],[32.594574,46.628323],[32.567393,46.618476],[32.543712,46.621731],[32.409028,46.568915],[32.335785,46.562161],[32.269298,46.587592],[32.253754,46.604722],[32.24822,46.607408],[32.236827,46.604438],[32.220063,46.590725],[32.210948,46.587592],[32.199718,46.586493],[32.180186,46.581773],[32.169932,46.580756],[32.146332,46.560248],[32.132091,46.570299],[32.117931,46.606879],[32.101085,46.614895],[32.039561,46.623481],[32.022797,46.629136],[32.008962,46.639797],[31.992931,46.657416],[31.979828,46.677069],[31.974457,46.693996],[31.970714,46.712877],[31.961436,46.727607],[31.950206,46.741767],[31.940278,46.758857],[31.936209,46.80036],[31.954763,46.831448],[31.9817,46.860338],[32.002452,46.895453],[32.007498,46.915229],[32.006684,46.930487],[31.995942,46.940375],[31.946056,46.946682],[31.935883,46.95482],[31.93922,46.967963],[31.968923,46.998684],[31.976899,47.009345],[31.970958,47.016343],[31.943696,47.018948],[31.900157,47.013617],[31.881114,47.015041],[31.865245,47.026353],[31.89324,47.068427],[31.896821,47.092719],[31.882335,47.118598],[31.868175,47.127346],[31.855724,47.129625],[31.845551,47.134019],[31.837901,47.149237],[31.834727,47.168199],[31.834483,47.178941],[31.830577,47.186754],[31.816742,47.197089],[31.75766,47.216213],[31.748546,47.228461],[31.753266,47.248521],[31.752126,47.255845],[31.74171,47.259101],[31.737804,47.255357],[31.723806,47.237494],[31.720551,47.231879],[31.726817,47.220526],[31.742442,47.209174],[31.761729,47.200507],[31.806163,47.192694],[31.816254,47.180854],[31.815603,47.122626],[31.819998,47.117092],[31.844737,47.112982],[31.851573,47.108344],[31.856619,47.103664],[31.861827,47.101508],[31.874278,47.093817],[31.866466,47.077053],[31.852306,47.060533],[31.844737,47.053697],[31.837413,47.00845],[31.868988,46.998847],[31.914073,47.003079],[31.947113,46.999091],[31.917735,46.976264],[31.904307,46.960517],[31.899425,46.943834],[31.907725,46.926459],[31.925629,46.922919],[31.947602,46.928168],[31.968272,46.936998],[31.97283,46.915351],[31.96339,46.885688],[31.945079,46.859524],[31.923188,46.848293],[31.898611,46.842922],[31.877452,46.828274],[31.864757,46.806586],[31.865245,46.779975],[31.902843,46.745185],[31.906749,46.738227],[31.899425,46.693996],[31.902354,46.676988],[31.907481,46.669176],[31.908539,46.662746],[31.899425,46.649604],[31.8921,46.643622],[31.870128,46.633124],[31.858409,46.629136],[31.814708,46.623033],[31.771495,46.627509],[31.674083,46.653225],[31.614431,46.649604],[31.597179,46.643215],[31.588715,46.629584],[31.578868,46.617336],[31.556814,46.614895],[31.548513,46.618069],[31.534516,46.627183],[31.525401,46.629136],[31.504161,46.627997],[31.493012,46.62873],[31.485037,46.63227],[31.480968,46.64643],[31.490896,46.663398],[31.546153,46.727607],[31.560232,46.749091],[31.559825,46.758857],[31.572113,46.766303],[31.618175,46.813463],[31.60613,46.826402],[31.59783,46.820461],[31.591319,46.805976],[31.583995,46.793647],[31.576671,46.789374],[31.557384,46.783637],[31.549327,46.779975],[31.543468,46.774848],[31.524181,46.754055],[31.52296,46.750312],[31.519542,46.747463],[31.508311,46.745185],[31.495616,46.750718],[31.481619,46.758857],[31.466807,46.783596],[31.456065,46.796047],[31.440684,46.800482],[31.451915,46.775458],[31.453787,46.76911],[31.455821,46.754584],[31.461925,46.748684],[31.470714,46.745347],[31.502126,46.727729],[31.50587,46.720404],[31.498302,46.707668],[31.479666,46.687201],[31.478201,46.683783],[31.462657,46.675238],[31.428559,46.637641],[31.416189,46.629136],[31.396658,46.626044],[31.352224,46.60932],[31.337657,46.601264],[31.323904,46.606147],[31.295746,46.608873],[31.28297,46.614895],[31.275564,46.607408],[31.256684,46.6164],[31.18686,46.629136],[31.159516,46.628974],[31.108165,46.617743],[31.054535,46.612738],[31.013031,46.603339],[30.991384,46.601264],[30.982432,46.597398],[30.959239,46.583401],[30.95045,46.584133],[30.939138,46.587714],[30.926036,46.584296],[30.866954,46.555813],[30.854503,46.553412],[30.812511,46.560045],[30.802582,46.560248],[30.790701,46.552924],[30.760916,46.524359],[30.754893,46.515855],[30.758311,46.50259],[30.775238,46.477688],[30.782074,46.457221],[30.785899,46.457261],[30.793468,46.452338],[30.798188,46.446438],[30.792979,46.443549],[30.790375,46.441474],[30.786794,46.43651],[30.783539,46.430854],[30.77475,46.400621],[30.772472,46.39643],[30.731293,46.358588],[30.714529,46.347968],[30.660655,46.350898],[30.651866,46.34455],[30.656505,46.339016],[30.679373,46.328315],[30.686534,46.320014],[30.686778,46.309027],[30.682384,46.299547],[30.653494,46.259589],[30.583507,46.190334],[30.56186,46.161689],[30.547699,46.147773],[30.531993,46.141913],[30.523285,46.133775],[30.503429,46.094387],[30.494151,46.080471],[30.371267,45.997952],[30.261404,45.895494],[30.204926,45.855862],[30.138438,45.81977],[30.140961,45.832953],[30.135265,45.889146],[30.127452,45.891343],[30.118337,45.884508],[30.110606,45.875067],[30.105805,45.863471],[30.102306,45.836859],[30.100597,45.830308],[30.096853,45.823717],[30.096446,45.818427],[30.094574,45.814846],[30.086681,45.813544],[30.084321,45.815619],[30.07838,45.819403],[30.072439,45.82099],[30.069591,45.816718],[30.061209,45.813463],[30.014659,45.839667],[29.990733,45.847073],[29.968516,45.838935],[29.96046,45.819159],[29.958263,45.794623],[29.952891,45.771959],[29.943044,45.783515],[29.932384,45.792426],[29.932384,45.799872],[29.939138,45.810452],[29.935069,45.816148],[29.92628,45.813788],[29.918712,45.799872],[29.917735,45.782904],[29.922374,45.769436],[29.930186,45.759101],[29.939301,45.751532],[29.932384,45.724189],[29.927419,45.73371],[29.919688,45.740546],[29.898204,45.751532],[29.895763,45.755357],[29.896821,45.759914],[29.896169,45.763617],[29.887706,45.765123],[29.881684,45.763007],[29.878754,45.758287],[29.876801,45.753607],[29.874034,45.751532],[29.850841,45.751125],[29.823741,45.747626],[29.802419,45.737494],[29.795746,45.717353],[29.803233,45.704169],[29.816417,45.697699],[29.843028,45.69066],[29.858246,45.679877],[29.865001,45.672349],[29.860118,45.668931],[29.84254,45.663886],[29.826671,45.654242],[29.809581,45.648586],[29.789073,45.65526],[29.786143,45.648912],[29.783865,45.646633],[29.784353,45.643622],[29.789073,45.635443],[29.774099,45.629584],[29.745942,45.622626],[29.733735,45.614325],[29.735037,45.64057],[29.723969,45.667426],[29.705251,45.688422],[29.682628,45.696845],[29.685313,45.70425],[29.67921,45.751532],[29.685802,45.767727],[29.692231,45.775336],[29.693858,45.781317],[29.685883,45.792426],[29.680431,45.798285],[29.677582,45.800198],[29.674001,45.801581],[29.653331,45.81387],[29.647472,45.818549],[29.642833,45.827216],[29.638194,45.826321],[29.633556,45.821357],[29.631358,45.813544],[29.634613,45.806627],[29.648692,45.793606],[29.651866,45.789008],[29.64796,45.781195],[29.629568,45.763495],[29.623871,45.751532],[29.622732,45.736233],[29.625336,45.728258],[29.630707,45.721503],[29.637543,45.709906],[29.603201,45.691311],[29.597179,45.652289],[29.599376,45.604438],[29.589692,45.559068],[29.615001,45.550116],[29.62908,45.546698],[29.648448,45.545396],[29.66684,45.548163],[29.681163,45.555121],[29.707042,45.57331],[29.694509,45.562201],[29.661632,45.525865],[29.648448,45.518134],[29.638031,45.513861],[29.631684,45.504462],[29.62672,45.495063],[29.62086,45.49079],[29.605154,45.487006],[29.605724,45.478176],[29.621104,45.454413],[29.629649,45.446926],[29.640798,45.441799],[29.651866,45.44302],[29.65561,45.45185],[29.653819,45.464016],[29.656016,45.474189],[29.672374,45.477118],[29.672374,45.453843],[29.675304,45.449612],[29.681488,45.450181],[29.686534,45.453559],[29.685883,45.457261],[29.694347,45.455512],[29.702159,45.45661],[29.708669,45.452786],[29.713227,45.436225],[29.719737,45.451361],[29.724457,45.468166],[29.73227,45.475735],[29.747406,45.463446],[29.754649,45.447252],[29.75587,45.427883],[29.747813,45.414293],[29.727712,45.415676],[29.741873,45.404527],[29.750173,45.38581],[29.753917,45.364081],[29.756196,45.321234],[29.754893,45.31269],[29.751475,45.304145],[29.742931,45.290473],[29.741222,45.282213],[29.729747,45.258124],[29.727712,45.247748],[29.728689,45.239325],[29.729747,45.237738],[29.728038,45.236884],[29.708751,45.223334],[29.692393,45.216742],[29.67449,45.213568],[29.659028,45.215888],[29.664215,45.223184],[29.666488,45.230625],[29.66499,45.23786],[29.659254,45.244165],[29.672276,45.272948],[29.667109,45.311861],[29.650262,45.346122],[29.628145,45.360798],[29.616362,45.365346],[29.569699,45.394956],[29.430637,45.430406],[29.353743,45.435936],[29.343924,45.438106],[29.332969,45.442137],[29.322117,45.443842],[29.312815,45.439346],[29.307027,45.434127],[29.299276,45.428908],[29.290491,45.424619],[29.281809,45.422293],[29.260828,45.422035],[29.244602,45.424205],[29.228169,45.42374],[29.206672,45.41542],[29.191582,45.40617],[29.183107,45.398987],[29.179386,45.391856],[29.174322,45.388962],[29.150138,45.387877],[29.141869,45.385086],[29.127503,45.374544],[29.110295,45.369066],[29.069522,45.360798],[29.018156,45.330878],[29.004617,45.326072],[28.982448,45.325503],[28.973663,45.323695],[28.96648,45.319871],[28.960433,45.311292],[28.957384,45.292017],[28.952837,45.285092],[28.929893,45.279098],[28.910049,45.287366],[28.893616,45.29982],[28.880852,45.306176],[28.858114,45.30907],[28.831811,45.322299],[28.816308,45.326072],[28.789746,45.321421],[28.788609,45.307106],[28.79016,45.292069],[28.761531,45.281837],[28.75967,45.274189],[28.762564,45.265145],[28.767267,45.257755],[28.774295,45.253363],[28.802665,45.244165],[28.7914,45.234966],[28.778687,45.23109],[28.747371,45.23047],[28.710061,45.226956],[28.577046,45.248092],[28.494157,45.278891],[28.40517,45.295066],[28.370237,45.309225],[28.353287,45.312429],[28.330239,45.322919],[28.310809,45.347827],[28.281198,45.401829],[28.286418,45.421725],[28.266884,45.440483],[28.237635,45.452059],[28.215146,45.450365],[28.212934,45.450198],[28.199498,45.461774],[28.201565,45.468854],[28.20849,45.481411],[28.217171,45.493193],[28.217275,45.493348],[28.270423,45.521471],[28.270501,45.521512],[28.341918,45.517636],[28.416849,45.503787],[28.480928,45.501978],[28.502012,45.508748],[28.506456,45.520582],[28.500048,45.554585],[28.497981,45.556445],[28.498239,45.558719],[28.503743,45.566102],[28.504596,45.567246],[28.510435,45.571018],[28.536893,45.579803],[28.523096,45.593239],[28.518755,45.607036],[28.516895,45.620989],[28.511314,45.635045],[28.498498,45.644295],[28.482891,45.650755],[28.474003,45.657938],[28.480928,45.669462],[28.504182,45.693698],[28.515241,45.702018],[28.532501,45.710079],[28.56144,45.71659],[28.567641,45.7246],[28.563525,45.735494],[28.560613,45.743204],[28.576684,45.761911],[28.643605,45.76651],[28.669753,45.77731],[28.673267,45.78687],[28.671924,45.797257],[28.669392,45.806301],[28.669753,45.812037],[28.677298,45.816584],[28.706392,45.821132],[28.725564,45.82878],[28.738276,45.837565],[28.745046,45.850484],[28.746441,45.870586],[28.742307,45.887329],[28.728406,45.921953],[28.729181,45.938644],[28.74024,45.953217],[28.757603,45.961175],[28.93196,45.993163],[28.956868,46.001379],[28.958935,46.021016],[28.941158,46.064683],[28.938781,46.089281],[28.946429,46.105094],[28.980846,46.132121],[29.00348,46.158941],[29.015365,46.182609],[29.009836,46.204364],[28.984112,46.221221],[28.95077,46.24307],[28.950615,46.243122],[28.93351,46.258986],[28.93289,46.272629],[28.939918,46.286995],[28.945809,46.304978],[28.944879,46.32074],[28.927309,46.368024],[28.919247,46.404662],[28.925448,46.432774],[28.945809,46.454788],[29.020326,46.489515],[29.055915,46.49874],[29.074948,46.503674],[29.162747,46.538091],[29.183059,46.538042],[29.184244,46.538039],[29.200212,46.523983],[29.206775,46.502511],[29.207602,46.417891],[29.205638,46.406109],[29.199282,46.396497],[29.190342,46.387196],[29.183417,46.37761],[29.183727,46.367171],[29.200677,46.35712],[29.222898,46.366473],[29.259175,46.394353],[29.27137,46.397427],[29.278192,46.395877],[29.283256,46.397427],[29.290077,46.410243],[29.290697,46.419261],[29.285943,46.439492],[29.289147,46.451636],[29.306717,46.471997],[29.320773,46.468741],[29.344234,46.434169],[29.362114,46.415928],[29.374723,46.416186],[29.418235,46.462488],[29.436838,46.476699],[29.456724,46.484366],[29.457612,46.484709],[29.480867,46.482048],[29.486448,46.475872],[29.488205,46.469361],[29.486241,46.462488],[29.480867,46.455512],[29.475286,46.447554],[29.473322,46.439802],[29.475079,46.432257],[29.480867,46.425152],[29.49606,46.420811],[29.527479,46.416651],[29.541432,46.413034],[29.555643,46.404197],[29.56944,46.382286],[29.582979,46.369651],[29.598586,46.363063],[29.615639,46.361822],[29.632072,46.36606],[29.645508,46.375594],[29.652949,46.391898],[29.647988,46.416393],[29.654396,46.422697],[29.682715,46.42293],[29.702869,46.42833],[29.713824,46.443058],[29.714134,46.47117],[29.72695,46.455796],[29.779557,46.421095],[29.80033,46.398358],[29.805085,46.389986],[29.806738,46.380891],[29.80617,46.361564],[29.808185,46.354691],[29.828132,46.339395],[29.847769,46.341462],[29.884666,46.3642],[29.902546,46.371176],[29.918669,46.373656],[30.037267,46.368928],[30.08114,46.374199],[30.107185,46.391898],[30.131576,46.422826],[30.118244,46.428692],[30.102017,46.430733],[30.086928,46.428873],[30.077006,46.422826],[30.060005,46.436805],[30.014064,46.462023],[30.021712,46.470653],[30.009413,46.488068],[30.00285,46.494217],[29.994944,46.498532],[29.989259,46.498687],[29.977064,46.493184],[29.970553,46.491737],[29.967039,46.493856],[29.962078,46.503442],[29.960217,46.505948],[29.916086,46.518815],[29.901926,46.53083],[29.898826,46.553129],[29.916086,46.554369],[29.9381,46.55734],[29.949675,46.578863],[29.947402,46.588346],[29.934948,46.608836],[29.931279,46.619171],[29.931899,46.632374],[29.935413,46.641857],[29.94027,46.650797],[29.944404,46.662476],[29.952621,46.724694],[29.951122,46.743117],[29.946678,46.750739],[29.935671,46.765157],[29.931795,46.772443],[29.930452,46.781642],[29.930658,46.803087],[29.928178,46.809754],[29.917429,46.813965],[29.907714,46.810942],[29.898516,46.806653],[29.889627,46.80717],[29.884873,46.812673],[29.876915,46.830786],[29.872212,46.837711],[29.843635,46.854144],[29.815213,46.856624],[29.785758,46.854661],[29.754132,46.85802],[29.735838,46.867192],[29.712481,46.893444],[29.696151,46.904683],[29.680855,46.908559],[29.648092,46.910419],[29.631865,46.914398],[29.623287,46.91954],[29.607577,46.93202],[29.598482,46.935379],[29.573161,46.933725],[29.567476,46.934656],[29.558691,46.94574],[29.559828,46.95884],[29.560626,46.961256],[29.564996,46.974498],[29.572489,47.011757],[29.583393,47.02279],[29.595433,47.032143],[29.60303,47.04576],[29.6021,47.061005],[29.594865,47.074595],[29.583393,47.085215],[29.570164,47.091442],[29.551353,47.090202],[29.539726,47.078885],[29.530993,47.066017],[29.520141,47.059919],[29.511459,47.066017],[29.480867,47.10524],[29.478696,47.108469],[29.47787,47.111544],[29.478593,47.114645],[29.480867,47.117487],[29.508669,47.119399],[29.530373,47.123688],[29.544842,47.135574],[29.55063,47.160172],[29.540398,47.212546],[29.544015,47.23425],[29.568717,47.243138],[29.580189,47.26045],[29.579259,47.283601],[29.57006,47.306778],[29.556573,47.324038],[29.539881,47.334218],[29.520968,47.33892],[29.501072,47.339825],[29.480867,47.338274],[29.470635,47.322746],[29.466087,47.307449],[29.459163,47.293497],[29.441696,47.282128],[29.425573,47.278666],[29.409553,47.279751],[29.394464,47.284712],[29.380821,47.29298],[29.370882,47.304434],[29.367592,47.308225],[29.364491,47.322436],[29.364078,47.336879],[29.35891,47.352718],[29.345836,47.365844],[29.330385,47.370495],[29.314675,47.372717],[29.300826,47.378194],[29.292713,47.388866],[29.288217,47.400777],[29.281396,47.411474],[29.2507,47.425375],[29.232613,47.44633],[29.21835,47.451601],[29.201866,47.446588],[29.192409,47.435814],[29.182074,47.429871],[29.163884,47.439379],[29.155615,47.449999],[29.140009,47.480152],[29.137189,47.484008],[29.130656,47.492942],[29.130604,47.493045],[29.130501,47.493097],[29.130397,47.4932],[29.117426,47.533327],[29.130501,47.55963],[29.156184,47.582781],[29.182074,47.613219],[29.192409,47.650917],[29.191479,47.686264],[29.196956,47.717502],[29.22667,47.743237],[29.238608,47.756001],[29.234732,47.766801],[29.221968,47.774811],[29.187448,47.783209],[29.177836,47.78972],[29.177733,47.800701],[29.186724,47.818219],[29.19892,47.829485],[29.21742,47.842895],[29.232768,47.85708],[29.236024,47.870723],[29.225999,47.87558],[29.186621,47.883642],[29.172565,47.891006],[29.164607,47.905604],[29.155822,47.939866],[29.147967,47.955369],[29.136288,47.968184],[29.123989,47.975987],[29.110037,47.979656],[29.092725,47.980173],[29.061047,47.96976],[29.017226,47.931081],[28.980846,47.926378],[28.950356,47.934801],[28.936087,47.942164],[28.914803,47.953146],[28.882557,47.976763],[28.862085,48.000502],[28.855685,48.007923],[28.839252,48.018285],[28.832534,48.024822],[28.830777,48.030868],[28.827573,48.057016],[28.811554,48.082906],[28.809176,48.089779],[28.80835,48.096574],[28.805921,48.103809],[28.799255,48.111793],[28.771246,48.124454],[28.735072,48.128691],[28.665619,48.129337],[28.573635,48.154969],[28.541596,48.155951],[28.519323,48.149129],[28.501082,48.112827],[28.49979,48.108914],[28.494157,48.091846],[28.493744,48.074819],[28.490023,48.065491],[28.479584,48.064923],[28.459379,48.074457],[28.447441,48.082751],[28.419019,48.122232],[28.435659,48.134686],[28.436899,48.149853],[28.427288,48.163366],[28.411578,48.170704],[28.388634,48.168586],[28.37556,48.156648],[28.364966,48.141507],[28.349566,48.129725],[28.328586,48.127012],[28.317424,48.135358],[28.315563,48.149284],[28.322178,48.163211],[28.337887,48.175484],[28.352253,48.181866],[28.363364,48.191013],[28.37003,48.211632],[28.36817,48.230623],[28.357731,48.238607],[28.340575,48.240106],[28.294479,48.236488],[28.277529,48.229124],[28.261716,48.219952],[28.240322,48.211632],[28.216965,48.208144],[28.199911,48.211735],[28.189369,48.223052],[28.185752,48.242379],[28.178517,48.258864],[28.162084,48.257185],[28.131078,48.239589],[28.115575,48.236747],[28.093251,48.237444],[28.078678,48.244912],[28.098315,48.284108],[28.092838,48.302066],[28.076405,48.314933],[28.055941,48.321496],[28.003177,48.325883],[27.967057,48.328886],[27.92644,48.339428],[27.904529,48.362475],[27.896674,48.367178],[27.885371,48.378444],[27.864841,48.398907],[27.849855,48.40963],[27.78526,48.441566],[27.751773,48.451979],[27.627026,48.451256],[27.606873,48.457819],[27.604806,48.484122],[27.582998,48.486034],[27.557057,48.474355],[27.545171,48.472365],[27.50383,48.472365],[27.480885,48.451411],[27.420217,48.417149],[27.403474,48.411491],[27.389832,48.415005],[27.36141,48.432807],[27.342186,48.436114],[27.306012,48.42366],[27.25193,48.37831],[27.246481,48.373741],[27.208551,48.360615],[27.175788,48.361804],[27.068818,48.388882],[27.048044,48.397667],[27.037398,48.399683],[27.02634,48.397099],[27.025409,48.389864],[27.0282,48.381389],[27.027786,48.374774],[27.02851,48.370795],[27.031817,48.36524],[27.033057,48.360202],[27.027683,48.357747],[27.015591,48.359401],[27.004635,48.358755],[26.997814,48.361545],[26.990579,48.362372],[26.981071,48.35568],[26.943244,48.351262],[26.908724,48.36524],[26.875961,48.383999],[26.842785,48.39374],[26.831933,48.391363],[26.828419,48.385136],[26.825628,48.377772],[26.816947,48.371726],[26.810074,48.371881],[26.793589,48.376273],[26.78806,48.375963],[26.777518,48.36617],[26.778189,48.357204],[26.78408,48.345164],[26.789351,48.32594],[26.790075,48.307053],[26.785734,48.294108],[26.774365,48.287183],[26.754573,48.286149],[26.735918,48.291834],[26.723619,48.302582],[26.712974,48.314907],[26.699434,48.325113],[26.679797,48.330178],[26.67401,48.321703],[26.6691,48.30881],[26.636079,48.294883],[26.625124,48.282894],[26.618613,48.267184],[26.617889,48.258968],[26.5874,48.249356],[26.461309,48.230391],[26.44467,48.227729],[26.397437,48.226205],[26.380488,48.223207],[26.347311,48.212097],[26.330258,48.208506],[26.311758,48.20972],[26.30349,48.212045],[26.296152,48.178998],[26.297495,48.156338],[26.286953,48.124712],[26.270727,48.093603],[26.255327,48.072338],[26.243235,48.062907],[26.217087,48.048024],[26.204788,48.037379],[26.18267,48.003273],[26.173058,47.993144],[26.125723,47.978416],[26.10253,47.978267],[26.029294,47.977796],[25.965732,47.964903],[25.918087,47.968158],[25.90124,47.965962],[25.870958,47.957022],[25.818351,47.952578],[25.752516,47.934595],[25.261744,47.898576],[25.218956,47.878474],[25.121908,47.770315],[25.080257,47.743133],[25.08005,47.743082],[25.079947,47.742927],[25.017418,47.724582],[24.94238,47.715563],[24.928858,47.713938],[24.896599,47.710061],[24.877789,47.718742],[24.854431,47.743133],[24.820738,47.784087],[24.808232,47.79574],[24.793659,47.804473],[24.712837,47.825919],[24.679144,47.84013],[24.661471,47.853876],[24.656923,47.866201],[24.655993,47.879301],[24.649275,47.895217],[24.633669,47.908291],[24.608451,47.921934],[24.569808,47.937289],[24.561632,47.940537],[24.542098,47.943819],[24.485564,47.943199],[24.428514,47.952526],[24.409187,47.952061],[24.386242,47.94369],[24.347175,47.920875],[24.297876,47.919789],[24.231006,47.897026],[24.209302,47.897594],[24.150184,47.912916],[24.148737,47.912115],[24.131167,47.914544],[24.094787,47.937928],[24.074943,47.944181],[24.025231,47.95325],[24.008798,47.961208],[23.977275,47.962293],[23.876609,47.93444],[23.855215,47.934233],[23.848394,47.949658],[23.796511,47.981982],[23.780078,47.987511],[23.710521,47.985083],[23.687267,47.987253],[23.646132,47.996606],[23.581744,48.001567],[23.563243,48.005753],[23.525623,48.00118],[23.514461,47.998983],[23.503712,47.992886],[23.499371,47.986219],[23.494307,47.980535],[23.488519,47.975858],[23.485476,47.974234],[23.481595,47.972163],[23.460821,47.971337],[23.396019,47.993067],[23.394468,47.993454],[23.393021,47.993583],[23.391574,47.993454],[23.390127,47.993067],[23.382169,47.991129],[23.374728,47.99056],[23.367286,47.991206],[23.360052,47.993144],[23.337521,48.010869],[23.289772,48.038206],[23.248637,48.071227],[23.231377,48.079728],[23.161718,48.095903],[23.139083,48.098125],[23.118619,48.091536],[23.098982,48.071227],[23.076555,48.024512],[23.063119,48.007458],[23.020331,47.984721],[23.004415,47.983067],[22.988188,47.986374],[22.972478,47.992886],[22.957079,48.00012],[22.939302,48.00565],[22.924109,48.004823],[22.915738,47.992989],[22.924213,47.972732],[22.915841,47.959193],[22.897858,47.950976],[22.877601,47.946739],[22.840807,47.966789],[22.832435,47.978933],[22.849489,47.993144],[22.851349,48.008802],[22.857964,48.018026],[22.861581,48.028387],[22.85476,48.047301],[22.844321,48.061047],[22.830988,48.072442],[22.801429,48.090968],[22.765566,48.104533],[22.762052,48.109261],[22.745722,48.116289],[22.728566,48.113137],[22.711616,48.105824],[22.693219,48.101768],[22.621182,48.101768],[22.608056,48.096833],[22.605472,48.097039],[22.600098,48.101122],[22.583045,48.124816],[22.568886,48.156519],[22.55576,48.177164],[22.481449,48.242586],[22.477418,48.24393],[22.473284,48.244498],[22.469047,48.244136],[22.44972,48.237677],[22.434217,48.236747],[22.418404,48.238969],[22.398767,48.244343],[22.394529,48.244757],[22.390498,48.244343],[22.386468,48.243051],[22.378613,48.238865],[22.370861,48.237393],[22.363627,48.23871],[22.357116,48.243103],[22.308126,48.293694],[22.297378,48.314003],[22.296447,48.327801],[22.298721,48.339324],[22.298721,48.349143],[22.29128,48.357566],[22.284355,48.358393],[22.25676,48.357282],[22.256967,48.373224],[22.271849,48.403455],[22.236089,48.415289],[22.201983,48.418157],[22.16922,48.409527],[22.159298,48.402318],[22.158263,48.402222],[22.156508,48.40206],[22.13284,48.404798],[22.13377,48.476835],[22.144829,48.493114],[22.148343,48.508823],[22.136664,48.549337],[22.138731,48.569595],[22.153717,48.585873],[22.219036,48.620935],[22.225237,48.628222],[22.235676,48.644164],[22.243221,48.651192],[22.25552,48.656773],[22.282185,48.662405],[22.294277,48.667625],[22.310297,48.681681],[22.322492,48.700336],[22.3289,48.721575],[22.32766,48.743021],[22.330761,48.756405],[22.338409,48.762968],[22.347814,48.767877],[22.356495,48.776145],[22.36342,48.787617],[22.365694,48.794387],[22.363523,48.828287],[22.36156,48.836452],[22.362283,48.844255],[22.368898,48.856451],[22.370799,48.858248],[22.378406,48.865442],[22.402384,48.878826],[22.411789,48.887766],[22.413753,48.893864],[22.41365,48.906783],[22.41489,48.911693],[22.427292,48.929469],[22.448996,48.971431],[22.466566,48.980526],[22.505013,48.984246],[22.520516,48.992928],[22.520103,49.009826],[22.524754,49.032874],[22.531989,49.055715],[22.539637,49.0722],[22.560721,49.085532],[22.580771,49.08145],[22.618288,49.054216],[22.642886,49.043157],[22.664384,49.041452],[22.685778,49.042796],[22.721951,49.041039],[22.744482,49.045535],[22.755334,49.044708],[22.765463,49.038403],[22.783963,49.02135],[22.795022,49.019025],[22.812902,49.012875],[22.835019,48.999749],[22.855276,48.994013],[22.866955,49.009981],[22.865014,49.013237],[22.863751,49.015356],[22.847525,49.033701],[22.843184,49.043106],[22.844424,49.056697],[22.853519,49.076282],[22.853416,49.084757],[22.841324,49.094886],[22.796469,49.11137],[22.778072,49.12031],[22.748823,49.14558],[22.71637,49.160566],[22.720194,49.161186],[22.721434,49.1616],[22.705725,49.168835],[22.692496,49.157931],[22.687845,49.155915],[22.681747,49.161238],[22.687121,49.173382],[22.702934,49.195034],[22.717094,49.230433],[22.73394,49.26087],[22.737764,49.275391],[22.724225,49.367065],[22.719781,49.382982],[22.7142,49.39063],[22.692599,49.405513],[22.679576,49.418948],[22.676786,49.424478],[22.673065,49.435847],[22.666864,49.478376],[22.660146,49.493001],[22.640922,49.528761],[22.665831,49.567363],[22.741692,49.633664],[22.758951,49.6656],[22.766186,49.67423],[22.777348,49.680483],[22.798846,49.683273],[22.809801,49.686322],[22.826648,49.697381],[22.888246,49.769728],[22.897961,49.777428],[22.906746,49.7812],[22.924419,49.785438],[22.933101,49.79107],[22.937752,49.798202],[22.945917,49.818356],[22.951188,49.826624],[22.993046,49.854426],[23.101463,49.957107],[23.141254,49.985477],[23.177841,50.003977],[23.207916,50.03395],[23.436429,50.193475],[23.481595,50.215954],[23.536062,50.242774],[23.536165,50.242774],[23.536268,50.242826],[23.536372,50.242826],[23.565311,50.257812],[23.644169,50.312692],[23.658018,50.325611],[23.658677,50.327005],[23.671247,50.353568],[23.682203,50.368245],[23.695742,50.376771],[23.713002,50.382404],[23.747522,50.38938],[23.928699,50.390827],[23.981306,50.40478],[24.003217,50.437698],[24.007764,50.448498],[24.009418,50.461469],[24.007867,50.480744],[24.010658,50.492785],[24.075047,50.514282],[24.09396,50.52715],[24.106466,50.538622],[24.107706,50.540844],[24.102539,50.543634],[24.095407,50.556864],[24.085279,50.604406],[24.10843,50.629882],[24.108165,50.630287],[24.082798,50.669156],[24.074943,50.690189],[24.081041,50.712978],[24.05417,50.717164],[24.026884,50.728016],[24.012828,50.743312],[24.025851,50.76083],[24.025851,50.767032],[23.997946,50.769202],[23.974278,50.776178],[23.959498,50.788891],[23.957638,50.808011],[23.969937,50.825168],[23.992881,50.836226],[24.020477,50.838552],[24.046935,50.829095],[24.067295,50.834831],[24.100472,50.834986],[24.130857,50.839069],[24.143156,50.856432],[24.130237,50.868937],[24.046935,50.898031],[23.979342,50.937512],[23.964356,50.953222],[23.958878,50.966348],[23.957845,50.975339],[23.955054,50.983556],[23.943995,50.994201],[23.9318,50.999472],[23.919087,51.002728],[23.911749,51.00681],[23.915987,51.014665],[23.915987,51.020866],[23.904205,51.062724],[23.895523,51.076108],[23.869271,51.10174],[23.854492,51.121532],[23.858213,51.13073],[23.874749,51.13613],[23.863587,51.148274],[23.816045,51.178789],[23.765195,51.199021],[23.742664,51.216255],[23.687267,51.2924],[23.670214,51.299376],[23.650887,51.299609],[23.635177,51.304699],[23.628666,51.325964],[23.63404,51.339296],[23.647786,51.353998],[23.665563,51.365806],[23.683856,51.370276],[23.677655,51.38379],[23.678895,51.394073],[23.686027,51.40105],[23.697602,51.404435],[23.689437,51.416423],[23.648716,51.453966],[23.647166,51.460193],[23.662772,51.480192],[23.648613,51.486212],[23.630526,51.490424],[23.614817,51.49722],[23.608099,51.511224],[23.606238,51.517399],[23.615437,51.51311],[23.624118,51.515901],[23.628666,51.531223],[23.626289,51.540886],[23.599107,51.588971],[23.593319,51.596955],[23.594353,51.604965],[23.606445,51.618117],[23.616677,51.624783],[23.628976,51.629046],[23.726231,51.644859],[23.749692,51.644472],[23.820282,51.631268],[23.845293,51.629821],[23.884878,51.619874],[23.912886,51.598583],[23.941308,51.581917],[23.981306,51.586],[24.130754,51.669793],[24.244132,51.718214],[24.272347,51.742889],[24.296119,51.808131],[24.311518,51.827561],[24.347898,51.861151],[24.369602,51.875103],[24.39079,51.880013],[24.639767,51.892131],[24.701055,51.882907],[24.721829,51.882338],[25.002742,51.910476],[25.092659,51.939751],[25.138031,51.948949],[25.1833,51.94975],[25.351971,51.921483],[25.547396,51.919442],[25.683476,51.918021],[25.767915,51.928511],[25.981132,51.903474],[26.050585,51.904817],[26.080764,51.900657],[26.14536,51.864846],[26.175332,51.856707],[26.407773,51.850609],[26.419762,51.846862],[26.419968,51.839731],[26.416971,51.830636],[26.419245,51.820921],[26.431544,51.810224],[26.4456,51.805599],[26.665741,51.801387],[26.854774,51.749349],[26.920816,51.742528],[27.021585,51.764542],[27.109952,51.762423],[27.151086,51.756764],[27.177855,51.747075],[27.184159,51.731443],[27.181472,51.710126],[27.181059,51.68341],[27.189017,51.663773],[27.20359,51.655143],[27.22364,51.653696],[27.247928,51.655659],[27.277487,51.651138],[27.27449,51.6338],[27.25971,51.612303],[27.254026,51.595379],[27.267462,51.587498],[27.289269,51.588971],[27.32906,51.596955],[27.388385,51.590728],[27.409004,51.59171],[27.430966,51.598428],[27.458768,51.617496],[27.477268,51.623672],[27.512305,51.623129],[27.512426,51.623099],[27.620619,51.595896],[27.676842,51.59481],[27.692655,51.589229],[27.705161,51.568352],[27.697306,51.543186],[27.66413,51.492853],[27.666182,51.490194],[27.670331,51.484817],[27.683767,51.475515],[27.700045,51.467531],[27.714256,51.463707],[27.730121,51.465154],[27.74056,51.471407],[27.787327,51.510914],[27.792546,51.517296],[27.797145,51.530603],[27.796267,51.541532],[27.793735,51.552307],[27.793218,51.565019],[27.799522,51.585199],[27.812545,51.602019],[27.831252,51.612923],[27.854196,51.615326],[27.87559,51.60804],[27.936051,51.567009],[27.954758,51.560782],[27.973155,51.55781],[28.070824,51.557629],[28.090151,51.562048],[28.114232,51.575613],[28.146685,51.614396],[28.166218,51.633103],[28.187612,51.645195],[28.21004,51.651965],[28.2304,51.651138],[28.245128,51.640622],[28.248901,51.630596],[28.248384,51.622096],[28.249366,51.613078],[28.257789,51.601761],[28.269726,51.594268],[28.29851,51.582977],[28.310912,51.57445],[28.317424,51.56396],[28.328172,51.536364],[28.333857,51.52838],[28.346879,51.525151],[28.359643,51.529362],[28.385533,51.545046],[28.435349,51.56613],[28.461239,51.571659],[28.488369,51.572021],[28.578079,51.56011],[28.603918,51.553547],[28.612703,51.53993],[28.615183,51.51957],[28.630893,51.46363],[28.637301,51.449626],[28.647016,51.439006],[28.663552,51.433993],[28.677918,51.438076],[28.691148,51.443424],[28.703963,51.442623],[28.711095,51.430247],[28.718226,51.411618],[28.728768,51.401256],[28.746751,51.413995],[28.751609,51.428748],[28.749439,51.46686],[28.752229,51.483706],[28.771866,51.511276],[28.799875,51.532618],[28.831914,51.548276],[28.863643,51.558921],[28.892892,51.562874],[28.954594,51.563262],[28.980846,51.569463],[28.999966,51.582408],[29.023634,51.614034],[29.043581,51.626178],[29.063218,51.630596],[29.083682,51.631217],[29.123886,51.625041],[29.147967,51.615636],[29.160421,51.603311],[29.181453,51.567009],[29.214836,51.53546],[29.226515,51.519053],[29.230443,51.492879],[29.221038,51.466963],[29.227756,51.45562],[29.244395,51.447894],[29.264859,51.432908],[29.276125,51.413581],[29.2846,51.391748],[29.297002,51.373713],[29.319946,51.365574],[29.340565,51.370096],[29.35326,51.377055],[29.379684,51.391541],[29.402732,51.39614],[29.446399,51.384901],[29.466294,51.385056],[29.480867,51.401256],[29.495543,51.425648],[29.505465,51.437456],[29.519004,51.441797],[29.545049,51.443657],[29.5682,51.449626],[29.583186,51.460813],[29.597345,51.473965],[29.618016,51.485644],[29.637756,51.490889],[29.660804,51.493137],[29.682715,51.491199],[29.699975,51.483706],[29.716511,51.465671],[29.725296,51.450452],[29.737905,51.439497],[29.828649,51.429963],[29.846633,51.432908],[29.856761,51.439859],[29.873608,51.459186],[29.886268,51.464793],[29.896552,51.464198],[29.912572,51.457429],[29.925077,51.457868],[29.985745,51.477867],[30.00869,51.482078],[30.14863,51.48443],[30.17731,51.479495],[30.20537,51.466498],[30.242784,51.434407],[30.256892,51.425053],[30.30738,51.409602],[30.320195,51.402083],[30.32619,51.395262],[30.329032,51.388622],[30.330117,51.380715],[30.330014,51.370354],[30.328257,51.362473],[30.319885,51.341596],[30.317095,51.340588],[30.324536,51.329969],[30.355129,51.305267],[30.368461,51.297671],[30.383757,51.293924],[30.413523,51.294054],[30.428096,51.291754],[30.442772,51.283047],[30.465044,51.261937],[30.480702,51.258862],[30.494655,51.259921],[30.508091,51.257673],[30.520803,51.252402],[30.532017,51.244625],[30.539613,51.235168],[30.550672,51.236796],[30.554657,51.242507],[30.555323,51.243462],[30.556615,51.267311],[30.559354,51.269326],[30.577234,51.289015],[30.579921,51.303665],[30.610462,51.317541],[30.638315,51.33586],[30.632424,51.364101],[30.64555,51.36746],[30.644517,51.372679],[30.637489,51.378596],[30.632424,51.383971],[30.622606,51.412108],[30.618162,51.418723],[30.606018,51.424562],[30.595579,51.42495],[30.587879,51.427353],[30.584004,51.439213],[30.586019,51.451848],[30.593564,51.458901],[30.604829,51.461227],[30.618162,51.459651],[30.618162,51.467144],[30.60762,51.469831],[30.597284,51.474275],[30.588913,51.48182],[30.584004,51.493835],[30.58974,51.501974],[30.585399,51.509389],[30.575064,51.516056],[30.562868,51.521766],[30.571446,51.526417],[30.576407,51.531119],[30.584004,51.542256],[30.567415,51.547268],[30.534136,51.553263],[30.52256,51.562719],[30.52256,51.568921],[30.527728,51.571298],[30.531087,51.573313],[30.535273,51.575018],[30.543127,51.576388],[30.543127,51.582589],[30.534549,51.585845],[30.515119,51.596257],[30.515119,51.603673],[30.543851,51.620132],[30.556615,51.62362],[30.552843,51.633335],[30.549949,51.637185],[30.555323,51.639769],[30.563488,51.647314],[30.570309,51.6515],[30.564315,51.665297],[30.575994,51.686407],[30.570309,51.69992],[30.582815,51.702297],[30.613821,51.702918],[30.624983,51.706096],[30.630564,51.715604],[30.632011,51.727981],[30.63506,51.739685],[30.64617,51.747075],[30.64617,51.754542],[30.638109,51.755111],[30.618162,51.761338],[30.630461,51.770019],[30.652785,51.77914],[30.670562,51.790535],[30.669631,51.806064],[30.662293,51.815598],[30.661983,51.819422],[30.666324,51.822393],[30.672732,51.829602],[30.694539,51.847276],[30.69733,51.850738],[30.702808,51.853761],[30.707562,51.860376],[30.71397,51.866964],[30.734537,51.873734],[30.737224,51.882235],[30.737844,51.891588],[30.741668,51.897919],[30.74973,51.899624],[30.779495,51.897919],[30.788177,51.900606],[30.797065,51.906729],[30.810605,51.918382],[30.810605,51.925178],[30.80523,51.929338],[30.802543,51.935539],[30.80306,51.939131],[30.831379,51.9459],[30.845641,51.951352],[30.858044,51.957631],[30.869102,51.96502],[30.879334,51.97365],[30.879644,51.97688],[30.879024,51.982022],[30.880885,51.988171],[30.888739,51.994347],[30.896904,51.998326],[30.902795,51.99998],[30.908377,51.998352],[30.915198,51.99259],[30.941243,51.993804],[30.950131,52.006775],[30.940519,52.020082],[30.91127,52.022562],[30.914629,52.027575],[30.916851,52.032355],[30.919745,52.037264],[30.924706,52.042277],[30.918815,52.059175],[30.934421,52.069717],[30.959329,52.074678],[31.096324,52.079613],[31.134823,52.076667],[31.159214,52.068115],[31.204896,52.04393],[31.228977,52.03822],[31.252438,52.044499],[31.268871,52.061242],[31.284271,52.081241],[31.304425,52.097493],[31.383076,52.117492],[31.474854,52.117776],[31.649933,52.096847],[31.764345,52.100568]]],[[[29.918712,45.69066],[30.075694,45.792426],[30.125987,45.811469],[29.908051,45.666449],[29.807465,45.614325],[29.730968,45.591376],[29.781261,45.610663],[29.801443,45.621894],[29.809418,45.631659],[29.814789,45.641059],[29.827647,45.644721],[29.84311,45.646186],[29.8567,45.649115],[29.872732,45.658271],[29.901622,45.680487],[29.918712,45.69066]]],[[[32.989268,46.042629],[32.99936,46.035305],[33.045095,46.037909],[33.057465,46.025214],[33.04005,46.012152],[32.619395,46.060004],[32.62672,46.065904],[32.631358,46.06623],[32.639334,46.060004],[32.783214,46.046332],[32.852061,46.056301],[32.881684,46.055406],[32.913585,46.038804],[32.954845,46.051744],[32.978689,46.05329],[32.989268,46.042629]]],[[[31.940278,46.204576],[32.070811,46.18244],[32.153087,46.155992],[32.16627,46.149359],[32.143891,46.152655],[32.101817,46.166693],[31.737153,46.220771],[31.580333,46.262763],[31.549001,46.282416],[31.521983,46.313218],[31.514008,46.329413],[31.505056,46.354926],[31.504405,46.373358],[31.521983,46.368476],[31.538422,46.325832],[31.554373,46.296332],[31.577973,46.27558],[31.618175,46.259223],[31.940278,46.204576]]]]}},{"type":"Feature","properties":{"featurecla":"Lake","scalerank":7,"name":null,"name_abb":null,"name_alt":null,"note":"_untitled_124","delta":null,"dam_name":null,"year":-99,"admin":"admin-0 more","min_zoom":5.7,"min_label":6.7,"label":null,"wikidataid":null,"name_ar":null,"name_bn":null,"name_de":null,"name_en":null,"name_es":null,"name_fr":null,"name_el":null,"name_hi":null,"name_hu":null,"name_id":null,"name_it":null,"name_ja":null,"name_ko":null,"name_nl":null,"name_pl":null,"name_pt":null,"name_ru":null,"name_sv":null,"name_tr":null,"name_vi":null,"name_zh":null,"ne_id":1159116173,"name_fa":null,"name_he":null,"name_uk":null,"name_ur":null,"name_zht":null},"bbox":[30.108892,46.080463,30.501573,46.396316],"geometry":{"type":"Polygon","coordinates":[[[30.480379,46.156115],[30.480379,46.156115],[30.480379,46.156115],[30.480379,46.156115],[30.491271,46.149344],[30.497747,46.146401],[30.500985,46.143163],[30.501573,46.135803],[30.498041,46.124912],[30.490682,46.11667],[30.483617,46.110194],[30.480379,46.104601],[30.475375,46.099597],[30.451531,46.083701],[30.442995,46.080463],[30.43122,46.083701],[30.422978,46.091354],[30.366755,46.175248],[30.341145,46.201741],[30.302878,46.223818],[30.23223,46.243246],[30.210153,46.245601],[30.192197,46.252372],[30.125376,46.305063],[30.11419,46.320075],[30.110658,46.327434],[30.108892,46.338326],[30.111541,46.344802],[30.115368,46.350395],[30.117428,46.357754],[30.128614,46.373944],[30.206915,46.396316],[30.218101,46.396316],[30.227815,46.393372],[30.235468,46.388368],[30.240767,46.382186],[30.233996,46.362758],[30.243122,46.341858],[30.2599,46.324196],[30.274913,46.313305],[30.294635,46.310361],[30.301406,46.325963],[30.303761,46.350395],[30.309354,46.374827],[30.320539,46.361286],[30.327015,46.343036],[30.329665,46.322725],[30.330253,46.302708],[30.339379,46.289756],[30.398546,46.265912],[30.407671,46.259142],[30.412675,46.254432],[30.415325,46.248251],[30.418563,46.238242],[30.419151,46.229411],[30.416796,46.222346],[30.413853,46.215282],[30.412381,46.207628],[30.421212,46.194676],[30.480379,46.156115]]]}},{"type":"Feature","properties":{"featurecla":"Lake","scalerank":7,"name":null,"name_abb":null,"name_alt":null,"note":"_untitled_87","delta":null,"dam_name":null,"year":-99,"admin":null,"min_zoom":5.7,"min_label":6.7,"label":null,"wikidataid":null,"name_ar":null,"name_bn":null,"name_de":null,"name_en":null,"name_es":null,"name_fr":null,"name_el":null,"name_hi":null,"name_hu":null,"name_id":null,"name_it":null,"name_ja":null,"name_ko":null,"name_nl":null,"name_pl":null,"name_pt":null,"name_ru":null,"name_sv":null,"name_tr":null,"name_vi":null,"name_zh":null,"ne_id":1159116539,"name_fa":null,"name_he":null,"name_uk":null,"name_ur":null,"name_zht":null},"bbox":[31.425582,49.752655,31.590721,50.021704],"geometry":{"type":"Polygon","coordinates":[[[31.427054,49.770612],[31.430881,49.796221],[31.443244,49.843614],[31.440595,49.869812],[31.425582,49.925742],[31.427937,49.948702],[31.440595,49.97961],[31.440595,50.014345],[31.467382,50.004042],[31.4821,50.000804],[31.488576,50.003748],[31.494169,50.01464],[31.50771,50.02141],[31.523311,50.021704],[31.536263,50.014345],[31.526549,49.998155],[31.541562,49.983437],[31.563933,49.966953],[31.576591,49.944875],[31.581007,49.8548],[31.590721,49.828896],[31.579829,49.823892],[31.570115,49.826246],[31.560107,49.830073],[31.549215,49.828896],[31.542151,49.820359],[31.526549,49.793572],[31.518601,49.787685],[31.472681,49.760898],[31.441184,49.752655],[31.427054,49.770612]]]}},{"type":"Feature","properties":{"featurecla":"Lake","scalerank":8,"name":null,"name_abb":null,"name_alt":null,"note":"_untitled_26","delta":null,"dam_name":null,"year":-99,"admin":null,"min_zoom":6,"min_label":7,"label":null,"wikidataid":null,"name_ar":null,"name_bn":null,"name_de":null,"name_en":null,"name_es":null,"name_fr":null,"name_el":null,"name_hi":null,"name_hu":null,"name_id":null,"name_it":null,"name_ja":null,"name_ko":null,"name_nl":null,"name_pl":null,"name_pt":null,"name_ru":null,"name_sv":null,"name_tr":null,"name_vi":null,"name_zh":null,"ne_id":1159117327,"name_fa":null,"name_he":null,"name_uk":null,"name_ur":null,"name_zht":null},"bbox":[27.472566,49.389999,27.698049,49.481252],"geometry":{"type":"Polygon","coordinates":[[[27.645064,49.475953],[27.666552,49.481252],[27.686569,49.478602],[27.698049,49.46565],[27.66302,49.46565],[27.657427,49.462118],[27.654189,49.462707],[27.643298,49.445045],[27.631523,49.413842],[27.622987,49.397064],[27.612978,49.389999],[27.544391,49.39883],[27.472566,49.417375],[27.606502,49.417375],[27.61916,49.422968],[27.623281,49.436508],[27.624753,49.452404],[27.629757,49.46565],[27.645064,49.475953]]]}},{"type":"Feature","properties":{"featurecla":"Reservoir","scalerank":4,"name":null,"name_abb":null,"name_alt":null,"note":null,"delta":"New or modified in version 1.2","dam_name":"Dniprodzershynsk","year":1964,"admin":null,"min_zoom":4,"min_label":5,"label":null,"wikidataid":null,"name_ar":null,"name_bn":null,"name_de":null,"name_en":null,"name_es":null,"name_fr":null,"name_el":null,"name_hi":null,"name_hu":null,"name_id":null,"name_it":null,"name_ja":null,"name_ko":null,"name_nl":null,"name_pl":null,"name_pt":null,"name_ru":null,"name_sv":null,"name_tr":null,"name_vi":null,"name_zh":null,"ne_id":1159123163,"name_fa":null,"name_he":null,"name_uk":null,"name_ur":null,"name_zht":null},"bbox":[33.536467,48.524863,34.570274,49.008209],"geometry":{"type":"Polygon","coordinates":[[[33.536467,49.002321],[33.585626,49.008209],[33.618595,48.996728],[33.663338,48.980833],[33.719562,48.95905],[33.755474,48.94963],[33.773725,48.946098],[33.795214,48.936972],[33.826122,48.934912],[33.860268,48.929319],[33.892942,48.912835],[33.892942,48.912835],[33.939746,48.894584],[33.976542,48.877805],[33.99597,48.865442],[34.05396,48.877217],[34.098703,48.881632],[34.109006,48.888697],[34.111361,48.911952],[34.123724,48.930496],[34.139914,48.916367],[34.131966,48.881632],[34.109889,48.853373],[34.113716,48.836889],[34.137853,48.84307],[34.156987,48.855139],[34.176121,48.863381],[34.201142,48.868386],[34.219098,48.861321],[34.20173,48.855434],[34.181419,48.845425],[34.202025,48.833356],[34.226457,48.835122],[34.244119,48.833062],[34.256188,48.813045],[34.256776,48.792145],[34.260309,48.769774],[34.267668,48.756527],[34.304169,48.742103],[34.329484,48.722381],[34.356566,48.70678],[34.418088,48.679698],[34.468719,48.66027],[34.50993,48.624946],[34.56056,48.593744],[34.570274,48.562247],[34.522587,48.524863],[34.49109,48.531927],[34.469013,48.548412],[34.476961,48.568429],[34.474017,48.580792],[34.456355,48.587562],[34.436633,48.598454],[34.410435,48.597865],[34.382764,48.597276],[34.365102,48.612583],[34.369812,48.637015],[34.365102,48.655855],[34.328307,48.658798],[34.297104,48.665863],[34.293572,48.690001],[34.279443,48.70207],[34.241764,48.706191],[34.215271,48.732389],[34.192016,48.749168],[34.158753,48.748579],[34.13491,48.759765],[34.101058,48.76683],[34.067795,48.772717],[34.044834,48.783903],[34.027761,48.793028],[34.014809,48.800388],[33.99597,48.78979],[33.972126,48.785964],[33.962118,48.802742],[33.9474,48.828058],[33.924734,48.843953],[33.886761,48.861321],[33.852909,48.86397],[33.844667,48.875156],[33.808754,48.888697],[33.779318,48.896645],[33.756946,48.906947],[33.729276,48.91519],[33.709259,48.906653],[33.703961,48.898411],[33.695424,48.911363],[33.665693,48.930791],[33.630958,48.937561],[33.597695,48.953162],[33.568259,48.970824],[33.536467,49.002321]]]}},{"type":"Feature","properties":{"featurecla":"Reservoir","scalerank":7,"name":"Kiev Reservoir","name_abb":"Kiev Res.","name_alt":"Kiyevskoye","note":null,"delta":null,"dam_name":"Kiev","year":1964,"admin":null,"min_zoom":5.7,"min_label":6.7,"label":"Kiev Reservoir","wikidataid":"Q1425651","name_ar":"Ш®ШІШ§Щ† ЩѓЩЉЩЉЩЃ","name_bn":"а¦•а¦їа§џа§‡а¦­ а¦°а¦їа¦ња¦ѕа¦°а§Ќа¦­а¦ѕа¦°","name_de":"Kiewer Meer","name_en":"Kyiv","name_es":"Kiev","name_fr":"Kiev","name_el":"О¤ОµП‡ОЅО·П„О® О›ОЇОјОЅО· ОљО№О­ОІОїП…","name_hi":"а¤•аҐЂа¤µ а¤ња¤Іа¤ѕа¤¶а¤Ї","name_hu":"Kijev-vГ­ztГЎrozГі","name_id":"Reservoir Kiev","name_it":"Serbatorio di Kiev","name_ja":"г‚­г‚Ёгѓ•иІЇж°ґж± ","name_ko":"н‚¤м€н”„ л €м Ђліґм–ґ","name_nl":"Kiev","name_pl":"Zbiornik Kijowski","name_pt":"Represa de Kiev","name_ru":"РљРёРµРІСЃРєРѕРµ РІРѕРґРѕС…СЂР°РЅРёР»РёС‰Рµ","name_sv":"Kievreservoaren","name_tr":"Kiev RezervuarД±","name_vi":"Hб»“ Kiev","name_zh":"еџєиѕ…ж°ґеє“","ne_id":1159123175,"name_fa":"Щ…Ш®ШІЩ† ШіШЇ Ъ©ЫЊЩ€","name_he":"ЧћЧђЧ’ЧЁ Ч§Ч™Ч™Ч‘","name_uk":"РљРёС—РІСЃСЊРєРµ РІРѕРґРѕСЃС…РѕРІРёС‰Рµ","name_ur":"Ъ©Ш§Ш¦ЫЊЩ€ Ш±ЫЊШІШ±Щ€Ш§Ш¦Ш±","name_zht":"еџєиј”ж°ґеє«"},"bbox":[30.254013,50.596597,30.597242,51.220355],"geometry":{"type":"Polygon","coordinates":[[[30.430632,50.863586],[30.436224,50.876538],[30.437402,50.890962],[30.432692,50.905091],[30.446822,50.91039],[30.446527,50.926874],[30.442406,50.947479],[30.446233,50.966613],[30.429748,50.973972],[30.412087,51.01224],[30.388243,51.02107],[30.270203,51.029313],[30.254013,51.034022],[30.256662,51.039321],[30.285804,51.041676],[30.295224,51.043737],[30.307882,51.053156],[30.319951,51.055217],[30.333786,51.053156],[30.346738,51.049624],[30.359101,51.049035],[30.37117,51.055217],[30.366755,51.057866],[30.364694,51.060515],[30.362633,51.064048],[30.358218,51.069052],[30.37117,51.076411],[30.376174,51.071701],[30.384416,51.068169],[30.394425,51.066697],[30.404728,51.069052],[30.410615,51.073762],[30.410909,51.079943],[30.410026,51.087302],[30.412381,51.097016],[30.427394,51.11409],[30.444467,51.114678],[30.4636,51.112323],[30.484206,51.120566],[30.489504,51.129985],[30.487444,51.139994],[30.480085,51.148236],[30.470076,51.151474],[30.456241,51.154417],[30.454181,51.161188],[30.460068,51.175317],[30.463012,51.178261],[30.470076,51.180027],[30.477435,51.184443],[30.480379,51.195923],[30.4845,51.204165],[30.49392,51.210935],[30.514525,51.220355],[30.528949,51.219766],[30.536014,51.212702],[30.540724,51.204165],[30.54926,51.199161],[30.559563,51.201221],[30.590471,51.220355],[30.588999,51.200633],[30.581935,51.185326],[30.573693,51.172668],[30.569866,51.161482],[30.566628,51.110557],[30.562212,51.097016],[30.571926,51.102021],[30.582229,51.101726],[30.59106,51.09525],[30.597242,51.082593],[30.596064,51.072879],[30.590766,51.061693],[30.564862,51.022248],[30.55868,51.000759],[30.559857,50.977799],[30.569866,50.953367],[30.560446,50.938649],[30.557503,50.913333],[30.560446,50.885663],[30.569866,50.863586],[30.559563,50.842686],[30.545139,50.762913],[30.53572,50.733771],[30.523356,50.713754],[30.509521,50.684612],[30.505694,50.653998],[30.522179,50.630155],[30.522473,50.622501],[30.526889,50.612787],[30.527183,50.603073],[30.514525,50.596597],[30.509521,50.601013],[30.470076,50.623973],[30.452709,50.630449],[30.430632,50.645756],[30.41032,50.663712],[30.398546,50.678431],[30.397957,50.685201],[30.39884,50.702863],[30.378823,50.727001],[30.378235,50.740247],[30.383533,50.780575],[30.388243,50.791761],[30.397074,50.804124],[30.412087,50.839153],[30.430632,50.863586]]]}},{"type":"Feature","properties":{"featurecla":"Reservoir","scalerank":4,"name":"Kakhovka Reservoir","name_abb":"Kakhovka Res.","name_alt":null,"note":null,"delta":null,"dam_name":null,"year":1956,"admin":null,"min_zoom":4,"min_label":5,"label":"Kakhovka Reservoir","wikidataid":"Q1540436","name_ar":"Ш®ШІШ§Щ† ЩѓШ§Ш®Щ€ЩЃЩѓШ§","name_bn":"а¦•а¦ѕа¦–а§‹а¦­а¦•а¦ѕ а¦°а¦їа¦ња¦ѕа¦°а§Ќа¦­а¦ѕа¦°","name_de":"Kachowkaer Stausee","name_en":"Kakhovka","name_es":"Kajovka","name_fr":"Kakhovka","name_el":"О¤ОµП‡ОЅО·П„О® О›ОЇОјОЅО· ОљО¬ОєОїОІО±","name_hi":"а¤•а¤–аҐ‹а¤µа¤•а¤ѕ а¤ња¤Іа¤ѕа¤¶а¤Ї","name_hu":"Kakhovka-vГ­ztГЎrozГі","name_id":"Reservoir Kakhovka","name_it":"Serbatoio di Kachovka","name_ja":"г‚«гѓ›гѓ•г‚«иІЇж°ґж± ","name_ko":"м№ґнёлёЊм№ґ м Ђм€м§Ђ","name_nl":"Kakhovka","name_pl":"Zbiornik Kachowski","name_pt":"Represa de Kakhovka","name_ru":"РљР°С…РѕРІСЃРєРѕРµ РІРѕРґРѕС…СЂР°РЅРёР»РёС‰Рµ","name_sv":"Kachovka-reservoaren","name_tr":"Kakhovka RezervuarД±","name_vi":"chб»©a nЖ°б»›c Kakhovka","name_zh":"еЌЎйњЌе¤«еЌЎж°ґеє“","ne_id":1159124989,"name_fa":"Щ…Ш®ШІЩ† ШіШЇ Ъ©Ш§Ш®Щ€Щ€Ъ©Ш§","name_he":"ЧћЧђЧ’ЧЁ Ч§ЧђЧ—Ч•Ч‘Ч§Ч”","name_uk":"РљР°С…РѕРІСЃСЊРєРµ РІРѕРґРѕСЃС…РѕРІРёС‰Рµ","name_ur":"Ъ©Ш§Ъ©ЪѕЩ€Ш§ Ш±ЫЊШІШ±Щ€Ш§Ш¦Ш±","name_zht":"еЌЎйњЌе¤«еЌЎж°ґеє«"},"bbox":[33.54,46.831386,35.326201,47.84812],"geometry":{"type":"Polygon","coordinates":[[[35.322375,47.551106],[35.321197,47.534033],[35.326201,47.526674],[35.319431,47.519904],[35.324435,47.506068],[35.308834,47.496943],[35.288228,47.488112],[35.277926,47.474866],[35.282047,47.451317],[35.287051,47.437776],[35.282341,47.435127],[35.25732,47.444841],[35.243779,47.453377],[35.235243,47.45691],[35.222585,47.457793],[35.212282,47.455438],[35.1905,47.446607],[35.178136,47.444841],[35.099541,47.451022],[35.077464,47.444546],[35.058624,47.42188],[35.040963,47.416876],[35.02124,47.414227],[34.968549,47.396271],[34.925277,47.395682],[34.892603,47.408634],[34.832847,47.451022],[34.792225,47.467212],[34.781039,47.474866],[34.760728,47.502242],[34.753663,47.506068],[34.727465,47.509012],[34.647103,47.533444],[34.615901,47.541392],[34.576456,47.534327],[34.510518,47.506068],[34.468424,47.495766],[34.383942,47.49135],[34.35215,47.478104],[34.339493,47.462797],[34.327424,47.444841],[34.313294,47.429828],[34.293866,47.423646],[34.22263,47.416876],[34.090461,47.422763],[34.05131,47.416876],[34.035709,47.407162],[34.029822,47.39215],[34.030116,47.347995],[34.065145,47.35712],[34.137853,47.356237],[34.183185,47.379786],[34.189661,47.37802],[34.191722,47.372133],[34.191428,47.368895],[34.187307,47.366245],[34.170822,47.353293],[34.16729,47.347995],[34.174355,47.337692],[34.204968,47.319736],[34.21586,47.307078],[34.174943,47.312377],[34.092227,47.336515],[34.05131,47.327978],[34.036003,47.31797],[34.022757,47.304723],[34.013043,47.288533],[34.006567,47.250855],[33.998619,47.237903],[33.921201,47.175792],[33.913548,47.166667],[33.905306,47.148416],[33.886466,47.13723],[33.8638,47.127811],[33.845255,47.115153],[33.838191,47.10014],[33.832303,47.079535],[33.823472,47.061579],[33.807577,47.053631],[33.788738,47.048921],[33.705138,46.985338],[33.699545,46.977979],[33.693952,46.961495],[33.690714,46.943833],[33.691597,46.933825],[33.710731,46.924994],[33.735752,46.92205],[33.789915,46.923227],[33.789915,46.916457],[33.769898,46.917929],[33.684238,46.905271],[33.666871,46.897618],[33.653036,46.885549],[33.640378,46.868181],[33.68571,46.868181],[33.706904,46.863472],[33.705138,46.851403],[33.69513,46.84787],[33.674524,46.854641],[33.663927,46.851403],[33.659512,46.848753],[33.654507,46.848165],[33.643616,46.848165],[33.640672,46.846398],[33.633019,46.834624],[33.54,46.831386],[33.558839,46.836684],[33.566787,46.848165],[33.570908,46.862],[33.578267,46.87554],[33.596518,46.888492],[33.598873,46.889376],[33.60476,46.903799],[33.613297,46.945894],[33.619773,46.957374],[33.638906,46.977979],[33.644499,46.988282],[33.640378,46.999173],[33.625365,46.994758],[33.60476,46.995052],[33.586215,46.999762],[33.578267,47.008887],[33.585626,47.01713],[33.623599,47.016541],[33.640378,47.026255],[33.633019,47.03332],[33.640378,47.045977],[33.655096,47.063934],[33.660395,47.074236],[33.666282,47.062756],[33.665693,47.051865],[33.662161,47.04009],[33.660395,47.026255],[33.686299,47.040973],[33.775786,47.120157],[33.786088,47.134581],[33.789915,47.149299],[33.786677,47.165489],[33.77814,47.173731],[33.748998,47.184034],[33.760479,47.188155],[33.767249,47.186978],[33.773431,47.184328],[33.783733,47.184034],[33.84555,47.20199],[33.925028,47.262924],[33.957997,47.297364],[33.972421,47.333277],[33.948283,47.361536],[33.960352,47.366245],[33.973598,47.368012],[33.984784,47.370661],[33.989199,47.379492],[33.984784,47.393327],[33.975659,47.404218],[33.966239,47.412755],[33.961824,47.420114],[33.929149,47.449845],[33.922968,47.464563],[33.955053,47.464563],[33.949166,47.474277],[33.934153,47.483991],[33.927677,47.491939],[33.923556,47.503714],[33.920907,47.533444],[33.922673,47.541981],[33.923556,47.554344],[33.927677,47.56082],[33.933859,47.56082],[33.949166,47.54463],[33.965062,47.540509],[33.98449,47.54463],[34.009805,47.55405],[34.051016,47.575244],[34.077803,47.581131],[34.10253,47.571123],[34.131966,47.540803],[34.146979,47.530501],[34.164346,47.526674],[34.219098,47.526674],[34.257365,47.56082],[34.257365,47.567591],[34.231167,47.589373],[34.224985,47.599971],[34.236465,47.609096],[34.260014,47.612334],[34.266491,47.601442],[34.268257,47.584075],[34.277088,47.567591],[34.290923,47.579071],[34.302992,47.579659],[34.331251,47.567591],[34.359215,47.56082],[34.365691,47.55611],[34.376583,47.543158],[34.379526,47.540215],[34.388946,47.53992],[34.396894,47.541981],[34.45871,47.569945],[34.462831,47.574067],[34.448702,47.595555],[34.466658,47.599676],[34.527297,47.601737],[34.59088,47.611156],[34.612957,47.609096],[34.632091,47.601148],[34.669181,47.579071],[34.897018,47.546691],[34.942056,47.546396],[34.985916,47.556993],[35.020063,47.576421],[35.078347,47.629113],[35.098658,47.65325],[35.118969,47.689752],[35.131332,47.73008],[35.126917,47.765698],[35.091004,47.808969],[35.086,47.824276],[35.113376,47.84812],[35.116614,47.837228],[35.130744,47.817211],[35.133687,47.810735],[35.13928,47.802787],[35.162535,47.79013],[35.167833,47.783654],[35.170483,47.771291],[35.176076,47.761576],[35.188439,47.74627],[35.195504,47.729491],[35.201391,47.700054],[35.209339,47.68357],[35.219347,47.672973],[35.244957,47.655017],[35.25732,47.642653],[35.263796,47.629407],[35.275276,47.594966],[35.284402,47.581131],[35.293527,47.575538],[35.312366,47.567591],[35.319431,47.56082],[35.322375,47.551106]]]}},{"type":"Feature","properties":{"featurecla":"Reservoir","scalerank":4,"name":"Kremenchuk Reservoir","name_abb":"Kremenchuk Res.","name_alt":null,"note":null,"delta":null,"dam_name":null,"year":1959,"admin":null,"min_zoom":4,"min_label":5,"label":"Kremenchuk Reservoir","wikidataid":"Q1431500","name_ar":"Ш®ШІШ§Щ† ЩѓШ±ЩЉЩ…Щ†ШґЩ€Щѓ","name_bn":"а¦•а§Ќа¦°а§‡а¦®а§‡а¦Ёа¦ља§Ѓа¦• а¦°а¦їа¦ња¦ѕа¦°а§Ќа¦­а¦ѕа¦°","name_de":"Krementschuker Stausee","name_en":"Kremenchuk","name_es":"Kremenchuk","name_fr":"Krementchouk","name_el":"О¤ОµП‡ОЅО·П„О® О›ОЇОјОЅО· ОљПЃОµОјОµОЅП„ПѓОїП…Оє","name_hi":"а¤•аҐЌа¤°аҐ‡а¤®аҐ‡а¤Ёа¤љаҐЃа¤• а¤ња¤Іа¤ѕа¤¶а¤Ї","name_hu":"Kremencsuk-vГ­ztГЎrozГі","name_id":"Reservoir Kremenchuk","name_it":"Serbatoio Kremenchuk","name_ja":"г‚Їгѓ¬гѓЎгѓігѓЃгѓҐг‚ЇиІЇж°ґж± ","name_ko":"нЃ¬л €л©м¶”нЃ¬ л €м Ђліґм–ґ","name_nl":"Kremenchuk","name_pl":"Zbiornik KremieЕ„czucki","name_pt":"Represa de Kremenchuk","name_ru":"РљСЂРµРјРµРЅС‡СѓРіСЃРєРѕРµ РІРѕРґРѕС…СЂР°РЅРёР»РёС‰Рµ","name_sv":"Krementjukdammen","name_tr":"Kremenchuk RezervuarД±","name_vi":"Hб»“ Kremenchuk","name_zh":"е…‹е€—зј…дёж јж°ґеє“","ne_id":1159125001,"name_fa":"Щ…Ш®ШІЩ† ШіШЇ Ъ©Ш±Щ…Щ†Ъ†Щ€Ъ©","name_he":"ЧћЧђЧ’ЧЁ Ч§ЧЁЧћЧ Ч¦\u0027Ч•Ч§","name_uk":"РљСЂРµРјРµРЅС‡СѓС†СЊРєРµ РІРѕРґРѕСЃС…РѕРІРёС‰Рµ","name_ur":"Ъ©Ш±ЫЊЩ…ЫЊЩ†Ъ†Ъ© Ш±ЫЊШІШ±Щ€Ш§Ш¦Ш±","name_zht":"е…‹е€—з·¬дёж јж°ґеє«"},"bbox":[31.885673,48.972296,33.204425,49.602235],"geometry":{"type":"Polygon","coordinates":[[[33.174694,49.063549],[33.153205,49.027637],[33.153205,49.020572],[33.179993,48.986131],[33.187352,48.972296],[33.171162,48.973179],[33.162919,48.97995],[33.156443,48.989958],[33.147024,49.000261],[33.133189,49.007914],[33.122297,49.009092],[33.068723,49.002027],[33.013677,48.983482],[32.982474,48.979067],[33.081381,49.013801],[33.091683,49.018806],[33.098748,49.027637],[33.099042,49.037939],[33.094921,49.046476],[33.092566,49.055601],[33.098748,49.069142],[33.089034,49.077679],[33.078731,49.081505],[33.054005,49.082094],[33.041347,49.084155],[33.012794,49.095635],[32.939497,49.070319],[32.927134,49.071791],[32.918597,49.081505],[32.897109,49.089747],[32.872088,49.095046],[32.851482,49.095635],[32.809682,49.08386],[32.789077,49.081211],[32.769649,49.088276],[32.763173,49.108587],[32.733442,49.139201],[32.666621,49.191892],[32.523266,49.260184],[32.45203,49.274314],[32.441139,49.283733],[32.433191,49.294625],[32.414351,49.306105],[32.379028,49.322295],[32.248036,49.353498],[32.208002,49.369982],[32.122342,49.427089],[32.090551,49.438275],[32.056699,49.44269],[32.044336,49.44946],[32.004597,49.494498],[31.988995,49.50539],[31.96839,49.506567],[31.885673,49.555137],[31.924235,49.560436],[31.945429,49.567795],[31.954555,49.578686],[31.961914,49.598997],[31.978987,49.602235],[31.999298,49.596642],[32.016077,49.589283],[32.044041,49.571033],[32.079954,49.534237],[32.111745,49.520991],[32.182981,49.506273],[32.220365,49.507156],[32.255689,49.520991],[32.308086,49.496853],[32.320744,49.493615],[32.333107,49.488316],[32.364015,49.464179],[32.37579,49.45888],[32.390214,49.454465],[32.427009,49.424734],[32.444377,49.41708],[32.502072,49.404128],[32.544166,49.385878],[32.56065,49.383817],[32.5842,49.385583],[32.591559,49.383817],[32.59568,49.379696],[32.600095,49.372337],[32.606571,49.365567],[32.615696,49.362623],[32.628943,49.360562],[32.661912,49.351732],[32.680751,49.349082],[32.701062,49.348788],[32.719607,49.350554],[32.735503,49.35497],[32.749043,49.362623],[32.749043,49.369982],[32.68811,49.399713],[32.673392,49.411193],[32.672509,49.416197],[32.673686,49.422673],[32.673686,49.428561],[32.669859,49.430915],[32.669271,49.432093],[32.653081,49.438275],[32.61187,49.46565],[32.62335,49.474187],[32.635713,49.489788],[32.653081,49.520991],[32.66515,49.55602],[32.676335,49.563968],[32.716958,49.57015],[32.728438,49.561907],[32.7461,49.542774],[32.749043,49.540713],[32.742862,49.526584],[32.700768,49.480074],[32.747277,49.475659],[32.865317,49.438275],[32.855309,49.42179],[32.841179,49.408544],[32.83853,49.400007],[32.862079,49.396769],[32.887395,49.396769],[32.900641,49.393237],[32.909178,49.381168],[32.928606,49.341429],[32.940969,49.328182],[32.957159,49.318468],[32.978647,49.314936],[33.000725,49.307871],[33.012794,49.291387],[33.030161,49.253414],[33.045762,49.242522],[33.094921,49.217207],[33.105224,49.208965],[33.147024,49.150975],[33.154088,49.147443],[33.172633,49.141556],[33.180876,49.136846],[33.20413,49.107704],[33.204425,49.102699],[33.184114,49.069142],[33.174694,49.063549]]]}},{"type":"Feature","properties":{"featurecla":"Alkaline Lake","scalerank":2,"name":"Syvash","name_abb":"Syvash","name_alt":null,"note":null,"delta":null,"dam_name":null,"year":-99,"admin":"admin-0 more","min_zoom":2,"min_label":3.7,"label":null,"wikidataid":null,"name_ar":"ШіЩЉЩЃШ§Шґ","name_bn":"а¦ёа¦їа¦­а§Ќа¦Їа¦ѕа¦¶","name_de":"Sywaschsee","name_en":"Syvash","name_es":"Syvash","name_fr":"Syvach","name_el":"ОЈО№ОІО¬П‚","name_hi":"а¤ёа¤їа¤µа¤ѕа¤¶аҐ‹","name_hu":"Syvash","name_id":"Syvash","name_it":"SivaЕЎ","name_ja":"и…ђжµ·","name_ko":"м‹њл°”м‹њ","name_nl":"Syvash Lake","name_pl":"Sywasz","name_pt":"Syvash","name_ru":"Р·Р°Р»РёРІ РЎРёРІР°С€","name_sv":"Syvash","name_tr":"Syvash","name_vi":"Hб»“ Syvash","name_zh":"й”Ўз“¦д»Ђж№–","ne_id":1159126643,"name_fa":"ШіЫЊЩ€Ш§Шґ","name_he":"ЧђЧ’Чќ ЧЎЧ™Ч•ЧђЧ©","name_uk":"РЎРёРІР°С€","name_ur":"ШіЫЊЩ€Ш§Шґ","name_zht":"йЊ«з“¦д»Ђж№–"},"bbox":[33.667754,45.251239,35.455427,46.282691],"geometry":{"type":"Polygon","coordinates":[[[35.387723,45.30658],[35.406563,45.300104],[35.424519,45.297454],[35.441003,45.292156],[35.455427,45.279204],[35.433644,45.261248],[35.420104,45.254183],[35.404502,45.251239],[35.386546,45.256538],[35.371239,45.268312],[35.35917,45.280087],[35.34975,45.285385],[35.234948,45.314528],[35.216404,45.323358],[35.209339,45.330718],[35.193443,45.336605],[35.175193,45.340137],[35.161652,45.340432],[35.144284,45.33631],[35.133393,45.332189],[35.122796,45.332484],[35.064806,45.364569],[35.051854,45.374872],[35.024184,45.412845],[35.010349,45.422559],[35.010349,45.429918],[35.022418,45.434039],[35.055975,45.439632],[35.068927,45.446697],[35.074814,45.450818],[35.087766,45.457883],[35.092182,45.463476],[35.095714,45.474367],[35.093654,45.477605],[35.089238,45.480549],[35.072165,45.549136],[35.066867,45.561499],[35.043023,45.577689],[35.037725,45.590347],[35.033898,45.604771],[35.025656,45.611541],[35.014175,45.615662],[35.003284,45.621844],[34.976791,45.663055],[34.965605,45.668942],[34.914975,45.66541],[34.900256,45.668942],[34.892014,45.674829],[34.88024,45.690136],[34.872292,45.696907],[34.865227,45.69985],[34.839029,45.703677],[34.847271,45.713097],[34.864933,45.724871],[34.872292,45.731641],[34.872292,45.737234],[34.851098,45.734879],[34.814008,45.719573],[34.791636,45.717218],[34.755429,45.726049],[34.737179,45.728403],[34.715985,45.724282],[34.731291,45.741944],[34.753369,45.761961],[34.764849,45.783744],[34.750131,45.806116],[34.724227,45.81318],[34.698617,45.805527],[34.673007,45.793164],[34.647103,45.78551],[34.652402,45.798168],[34.665648,45.816124],[34.668298,45.830253],[34.67183,45.840556],[34.680366,45.84821],[34.69273,45.852919],[34.705976,45.854391],[34.70892,45.855863],[34.740122,45.859984],[34.747187,45.858218],[34.754546,45.867049],[34.756901,45.877646],[34.755429,45.889421],[34.750131,45.902373],[34.722755,45.879707],[34.707154,45.871464],[34.664765,45.865577],[34.647692,45.858807],[34.546431,45.792575],[34.506103,45.777857],[34.461654,45.771969],[34.461654,45.77874],[34.492268,45.792575],[34.503159,45.799934],[34.508163,45.807882],[34.513168,45.819362],[34.520821,45.829665],[34.533773,45.83408],[34.541132,45.839379],[34.546136,45.862928],[34.554673,45.868226],[34.567919,45.869404],[34.580871,45.872642],[34.591469,45.877057],[34.600005,45.881767],[34.607659,45.888243],[34.622671,45.903844],[34.626792,45.909732],[34.632679,45.925039],[34.632091,45.932398],[34.628558,45.937696],[34.626792,45.94741],[34.615606,45.952709],[34.544076,45.970665],[34.544076,45.964484],[34.564387,45.949471],[34.575278,45.939168],[34.578811,45.929749],[34.569097,45.918268],[34.552612,45.919151],[34.537306,45.922978],[34.530535,45.91974],[34.527003,45.910909],[34.518466,45.899135],[34.499921,45.878529],[34.488147,45.875586],[34.477255,45.8853],[34.461654,45.909732],[34.475195,45.925333],[34.482554,45.929749],[34.465481,45.936225],[34.444875,45.932398],[34.427802,45.919151],[34.420443,45.89884],[34.417794,45.874114],[34.411612,45.864694],[34.406902,45.87117],[34.406902,45.895602],[34.400721,45.895602],[34.398071,45.888832],[34.39395,45.885005],[34.388063,45.883239],[34.379526,45.881767],[34.383059,45.8853],[34.386002,45.888832],[34.387474,45.89413],[34.386591,45.902373],[34.359215,45.881767],[34.362159,45.891776],[34.37099,45.907966],[34.372756,45.91974],[34.37776,45.924744],[34.400132,45.932398],[34.406902,45.936519],[34.410729,45.956241],[34.396894,45.966838],[34.3757,45.974492],[34.359215,45.984795],[34.366869,45.985678],[34.386591,45.991565],[34.363042,46.01688],[34.349796,46.026006],[34.331251,46.025123],[34.327424,46.020118],[34.323008,46.003045],[34.318299,45.998041],[34.30829,45.996864],[34.297693,45.999218],[34.287979,46.00334],[34.28062,46.008638],[34.276793,46.023062],[34.279148,46.039841],[34.277088,46.046022],[34.239703,46.007461],[34.226751,46.004517],[34.21586,46.018352],[34.228518,46.029244],[34.212033,46.036308],[34.16729,46.046317],[34.161108,46.038663],[34.156398,46.043373],[34.150217,46.047789],[34.142269,46.051321],[34.133438,46.053087],[34.129611,46.054265],[34.121369,46.058974],[34.11607,46.059857],[34.113127,46.057797],[34.111949,46.053087],[34.113127,46.048377],[34.11607,46.046317],[34.126962,46.042784],[34.184657,46.008638],[34.195254,46.000396],[34.200847,45.988621],[34.202025,45.967427],[34.196137,45.95006],[34.182008,45.945644],[34.165818,45.944467],[34.153749,45.936519],[34.128139,45.954769],[34.117248,45.96831],[34.112832,45.984795],[34.129611,45.979202],[34.144624,45.978907],[34.157281,45.983323],[34.16729,45.991565],[34.16729,45.998041],[34.112244,46.033365],[34.078981,46.045434],[34.037475,46.087233],[34.01893,46.096359],[33.998914,46.100774],[33.951815,46.101657],[33.939746,46.098714],[33.943279,46.092238],[33.961824,46.080463],[33.973598,46.077519],[33.983607,46.078402],[33.99126,46.076931],[33.99597,46.066922],[33.976542,46.060741],[33.975953,46.052204],[33.984195,46.041313],[33.989199,46.028949],[33.981546,46.017469],[33.965356,46.020118],[33.949755,46.028066],[33.944751,46.032776],[33.937097,46.036897],[33.932682,46.046317],[33.9265,46.055736],[33.913548,46.059857],[33.903834,46.055736],[33.894709,46.046611],[33.882934,46.039252],[33.865567,46.038663],[33.87322,46.046317],[33.867627,46.052498],[33.866155,46.055148],[33.865567,46.059857],[33.885583,46.065156],[33.876458,46.08164],[33.838485,46.115198],[33.848788,46.122263],[33.85232,46.132565],[33.852026,46.159353],[33.845844,46.164945],[33.804339,46.17672],[33.804339,46.143457],[33.799629,46.127856],[33.786971,46.12138],[33.741934,46.13963],[33.73222,46.145517],[33.687771,46.202918],[33.679823,46.210278],[33.667754,46.217637],[33.667754,46.223818],[33.69513,46.223818],[33.713969,46.219108],[33.727804,46.225584],[33.740756,46.236476],[33.755769,46.245601],[33.77137,46.247367],[33.79227,46.244718],[33.810226,46.238242],[33.81788,46.227645],[33.822884,46.224113],[33.83407,46.22323],[33.855558,46.223818],[33.865567,46.22529],[33.881168,46.231177],[33.893826,46.231177],[33.95211,46.21381],[33.972126,46.210866],[33.98184,46.201152],[34.006861,46.159058],[34.020402,46.149344],[34.025995,46.147284],[34.02835,46.142574],[34.03041,46.137864],[34.033943,46.135803],[34.039536,46.136687],[34.042479,46.138747],[34.04454,46.140808],[34.054843,46.144046],[34.060436,46.148167],[34.067206,46.150816],[34.077803,46.149344],[34.077803,46.146695],[34.079864,46.139925],[34.082513,46.13286],[34.085457,46.12815],[34.089578,46.127267],[34.101058,46.128444],[34.106062,46.12815],[34.126373,46.124029],[34.138148,46.124323],[34.136676,46.131977],[34.131966,46.141691],[34.12343,46.16524],[34.11607,46.16995],[34.104885,46.171421],[34.094876,46.175248],[34.077803,46.18349],[34.077803,46.190261],[34.104885,46.185845],[34.115482,46.189083],[34.119603,46.200858],[34.124313,46.209689],[34.135204,46.207923],[34.146684,46.199975],[34.153749,46.190261],[34.153455,46.183196],[34.147567,46.162296],[34.154632,46.150522],[34.159048,46.146989],[34.161108,46.152877],[34.202025,46.18349],[34.166995,46.206745],[34.15316,46.219992],[34.147567,46.23471],[34.148156,46.260025],[34.152572,46.276215],[34.162874,46.282691],[34.181714,46.279159],[34.213211,46.260614],[34.237348,46.234415],[34.289745,46.161413],[34.293278,46.154348],[34.297104,46.141985],[34.296516,46.117553],[34.298576,46.106367],[34.307996,46.101657],[34.318299,46.112549],[34.326541,46.137275],[34.331251,46.162885],[34.331251,46.17672],[34.32242,46.181724],[34.298576,46.184079],[34.290923,46.190261],[34.2921,46.197326],[34.299459,46.203507],[34.307701,46.208806],[34.311234,46.214399],[34.320359,46.212632],[34.379526,46.190261],[34.448702,46.152288],[34.484614,46.145517],[34.517289,46.162296],[34.522882,46.177897],[34.527297,46.186434],[34.533773,46.190261],[34.54437,46.187317],[34.557322,46.179369],[34.568214,46.169361],[34.572629,46.159353],[34.572629,46.131977],[34.570569,46.120791],[34.56056,46.107839],[34.5585,46.098125],[34.552318,46.085173],[34.539072,46.098125],[34.527003,46.118436],[34.524059,46.12815],[34.512285,46.121674],[34.501099,46.104306],[34.492857,46.094592],[34.489619,46.111666],[34.491973,46.116964],[34.495506,46.122557],[34.494328,46.126972],[34.482554,46.12815],[34.448702,46.107839],[34.439577,46.090766],[34.439871,46.07281],[34.449585,46.057208],[34.469013,46.046317],[34.46136,46.034248],[34.452529,46.036603],[34.441343,46.043962],[34.427508,46.046317],[34.416911,46.038958],[34.405725,46.024828],[34.401309,46.011287],[34.410729,46.0054],[34.438105,46.005694],[34.461654,46.003045],[34.472545,45.993037],[34.461654,45.970665],[34.482848,45.966838],[34.514345,45.994803],[34.555262,45.98244],[34.575573,45.996864],[34.629441,46.071338],[34.633268,46.083995],[34.629441,46.102246],[34.621494,46.12138],[34.616489,46.141396],[34.620316,46.162296],[34.652108,46.184374],[34.697734,46.180547],[34.742183,46.162296],[34.770736,46.141985],[34.778684,46.129622],[34.787221,46.111371],[34.788104,46.094592],[34.774269,46.087233],[34.766026,46.090471],[34.75278,46.104601],[34.746893,46.107839],[34.721872,46.109605],[34.683016,46.101952],[34.670358,46.096359],[34.660938,46.087233],[34.680072,46.07958],[34.698028,46.066039],[34.71098,46.050143],[34.715985,46.03572],[34.74601,46.015408],[34.753663,46.011582],[34.763083,46.016292],[34.766026,46.0263],[34.770736,46.036014],[34.784571,46.038663],[34.795168,46.029244],[34.803999,46.008344],[34.810181,45.984795],[34.812242,45.967427],[34.812536,45.94535],[34.81548,45.935636],[34.82225,45.926511],[34.826077,45.923861],[34.83844,45.917091],[34.842561,45.915913],[34.84786,45.91297],[34.846093,45.907082],[34.841384,45.902373],[34.839029,45.902373],[34.836674,45.901784],[34.827254,45.895897],[34.825488,45.895602],[34.825488,45.889715],[34.827843,45.884122],[34.830787,45.881178],[34.832847,45.881767],[34.813125,45.827899],[34.811359,45.81789],[34.815774,45.813475],[34.827254,45.814652],[34.837263,45.817301],[34.845799,45.821423],[34.852569,45.826721],[34.859045,45.835258],[34.861695,45.8435],[34.864638,45.849976],[34.872292,45.854391],[34.883772,45.853214],[34.894664,45.846443],[34.904378,45.837613],[34.910854,45.830253],[34.920273,45.814063],[34.932931,45.776385],[34.942056,45.759017],[34.977086,45.717806],[34.979146,45.709859],[34.981207,45.706032],[34.996514,45.686898],[34.999752,45.674829],[35.007405,45.669531],[35.016236,45.666881],[35.023889,45.66276],[35.032426,45.651869],[35.051854,45.621844],[35.078347,45.597117],[35.084528,45.587109],[35.126917,45.552962],[35.33827,45.340137],[35.345335,45.335427],[35.356815,45.333956],[35.366824,45.330423],[35.3733,45.32277],[35.379187,45.313939],[35.387723,45.30658]]]}}]}