<?xml version="1.0" encoding="utf-8" ?>
<kml xmlns="http://www.opengis.net/kml/2.2">
<Document id="root_doc">
<Schema name="main_layer" id="main_layer">
	<SimpleField name="timestamp" type="string"></SimpleField>
	<SimpleField name="begin" type="string"></SimpleField>
	<SimpleField name="end" type="string"></SimpleField>
	<SimpleField name="altitudeMode" type="string"></SimpleField>
	<SimpleField name="tessellate" type="int"></SimpleField>
	<SimpleField name="extrude" type="int"></SimpleField>
	<SimpleField name="visibility" type="int"></SimpleField>
	<SimpleField name="drawOrder" type="int"></SimpleField>
	<SimpleField name="icon" type="string"></SimpleField>
	<SimpleField name="name_az" type="string"></SimpleField>
	<SimpleField name="name_be" type="string"></SimpleField>
	<SimpleField name="name_be_tarask" type="string"></SimpleField>
	<SimpleField name="name_bg" type="string"></SimpleField>
	<SimpleField name="name_ca" type="string"></SimpleField>
	<SimpleField name="name_crh" type="string"></SimpleField>
	<SimpleField name="name_cs" type="string"></SimpleField>
	<SimpleField name="name_de" type="string"></SimpleField>
	<SimpleField name="name_en" type="string"></SimpleField>
	<SimpleField name="name_eo" type="string"></SimpleField>
	<SimpleField name="name_es" type="string"></SimpleField>
	<SimpleField name="name_et" type="string"></SimpleField>
	<SimpleField name="name_eu" type="string"></SimpleField>
	<SimpleField name="name_fa" type="string"></SimpleField>
	<SimpleField name="name_fi" type="string"></SimpleField>
	<SimpleField name="name_fr" type="string"></SimpleField>
	<SimpleField name="name_ga" type="string"></SimpleField>
	<SimpleField name="name_hr" type="string"></SimpleField>
	<SimpleField name="name_hu" type="string"></SimpleField>
	<SimpleField name="name_hy" type="string"></SimpleField>
	<SimpleField name="name_id" type="string"></SimpleField>
	<SimpleField name="name_it" type="string"></SimpleField>
	<SimpleField name="name_ja" type="string"></SimpleField>
	<SimpleField name="name_ka" type="string"></SimpleField>
	<SimpleField name="name_ko" type="string"></SimpleField>
	<SimpleField name="name_lt" type="string"></SimpleField>
	<SimpleField name="name_lv" type="string"></SimpleField>
	<SimpleField name="name_mk" type="string"></SimpleField>
	<SimpleField name="name_mr" type="string"></SimpleField>
	<SimpleField name="name_nan" type="string"></SimpleField>
	<SimpleField name="name_nl" type="string"></SimpleField>
	<SimpleField name="name_nn" type="string"></SimpleField>
	<SimpleField name="name_no" type="string"></SimpleField>
	<SimpleField name="name_os" type="string"></SimpleField>
	<SimpleField name="name_pl" type="string"></SimpleField>
	<SimpleField name="name_pnb" type="string"></SimpleField>
	<SimpleField name="name_pt" type="string"></SimpleField>
	<SimpleField name="name_ro" type="string"></SimpleField>
	<SimpleField name="name_ru" type="string"></SimpleField>
	<SimpleField name="name_rue" type="string"></SimpleField>
	<SimpleField name="name_sco" type="string"></SimpleField>
	<SimpleField name="name_sh" type="string"></SimpleField>
	<SimpleField name="ISO3166_1" type="string"></SimpleField>
	<SimpleField name="ISO3166_1_alpha2" type="string"></SimpleField>
	<SimpleField name="ISO3166_1_alpha3" type="string"></SimpleField>
	<SimpleField name="ISO3166_1_numeric" type="string"></SimpleField>
	<SimpleField name="according_to_RU" type="string"></SimpleField>
	<SimpleField name="according_to_UA" type="string"></SimpleField>
	<SimpleField name="alt_name_eo" type="string"></SimpleField>
	<SimpleField name="alt_name_vi" type="string"></SimpleField>
	<SimpleField name="default_language" type="string"></SimpleField>
	<SimpleField name="flag" type="string"></SimpleField>
	<SimpleField name="int_name" type="string"></SimpleField>
	<SimpleField name="name_ab" type="string"></SimpleField>
	<SimpleField name="name_ace" type="string"></SimpleField>
	<SimpleField name="name_af" type="string"></SimpleField>
	<SimpleField name="name_als" type="string"></SimpleField>
	<SimpleField name="name_am" type="string"></SimpleField>
	<SimpleField name="name_an" type="string"></SimpleField>
	<SimpleField name="name_ang" type="string"></SimpleField>
	<SimpleField name="name_arc" type="string"></SimpleField>
	<SimpleField name="name_arz" type="string"></SimpleField>
	<SimpleField name="name_ast" type="string"></SimpleField>
	<SimpleField name="name_ba" type="string"></SimpleField>
	<SimpleField name="name_bar" type="string"></SimpleField>
	<SimpleField name="name_bat_smg" type="string"></SimpleField>
	<SimpleField name="name_bcl" type="string"></SimpleField>
	<SimpleField name="name_bi" type="string"></SimpleField>
	<SimpleField name="name_bn" type="string"></SimpleField>
	<SimpleField name="name_bo" type="string"></SimpleField>
	<SimpleField name="name_bpy" type="string"></SimpleField>
	<SimpleField name="name_br" type="string"></SimpleField>
	<SimpleField name="name_bs" type="string"></SimpleField>
	<SimpleField name="name_bxr" type="string"></SimpleField>
	<SimpleField name="name_cbk_zam" type="string"></SimpleField>
	<SimpleField name="name_cdo" type="string"></SimpleField>
	<SimpleField name="name_ce" type="string"></SimpleField>
	<SimpleField name="name_ceb" type="string"></SimpleField>
	<SimpleField name="name_chr" type="string"></SimpleField>
	<SimpleField name="name_chy" type="string"></SimpleField>
	<SimpleField name="name_ckb" type="string"></SimpleField>
	<SimpleField name="name_cnr" type="string"></SimpleField>
</Schema>
<Folder><name>main_layer</name>
  <Placemark>
	<name></name>
	<description></description>
	<Style><LineStyle><color>ff0000ff</color></LineStyle><PolyStyle><fill>0</fill></PolyStyle></Style>
	<ExtendedData><SchemaData schemaUrl="#main_layer">
		<SimpleData name="tessellate">0</SimpleData>
		<SimpleData name="extrude">0</SimpleData>
		<SimpleData name="visibility">0</SimpleData>
		<SimpleData name="name_az"></SimpleData>
		<SimpleData name="name_be"></SimpleData>
		<SimpleData name="name_be_tarask"></SimpleData>
		<SimpleData name="name_bg"></SimpleData>
		<SimpleData name="name_ca"></SimpleData>
		<SimpleData name="name_crh"></SimpleData>
		<SimpleData name="name_cs"></SimpleData>
		<SimpleData name="name_de"></SimpleData>
		<SimpleData name="name_en"></SimpleData>
		<SimpleData name="name_eo"></SimpleData>
		<SimpleData name="name_es"></SimpleData>
		<SimpleData name="name_et"></SimpleData>
		<SimpleData name="name_eu"></SimpleData>
		<SimpleData name="name_fa"></SimpleData>
		<SimpleData name="name_fi"></SimpleData>
		<SimpleData name="name_fr"></SimpleData>
		<SimpleData name="name_ga"></SimpleData>
		<SimpleData name="name_hr"></SimpleData>
		<SimpleData name="name_hu"></SimpleData>
		<SimpleData name="name_hy"></SimpleData>
		<SimpleData name="name_id"></SimpleData>
		<SimpleData name="name_it"></SimpleData>
		<SimpleData name="name_ja"></SimpleData>
		<SimpleData name="name_ka"></SimpleData>
		<SimpleData name="name_ko"></SimpleData>
		<SimpleData name="name_lt"></SimpleData>
		<SimpleData name="name_lv"></SimpleData>
		<SimpleData name="name_mk"></SimpleData>
		<SimpleData name="name_mr"></SimpleData>
		<SimpleData name="name_nan"></SimpleData>
		<SimpleData name="name_nl"></SimpleData>
		<SimpleData name="name_nn"></SimpleData>
		<SimpleData name="name_no"></SimpleData>
		<SimpleData name="name_os"></SimpleData>
		<SimpleData name="name_pl"></SimpleData>
		<SimpleData name="name_pnb"></SimpleData>
		<SimpleData name="name_pt"></SimpleData>
		<SimpleData name="name_ro"></SimpleData>
		<SimpleData name="name_ru"></SimpleData>
		<SimpleData name="name_rue"></SimpleData>
		<SimpleData name="name_sco"></SimpleData>
		<SimpleData name="name_sh"></SimpleData>
		<SimpleData name="ISO3166_1"></SimpleData>
		<SimpleData name="ISO3166_1_alpha2"></SimpleData>
		<SimpleData name="ISO3166_1_alpha3"></SimpleData>
		<SimpleData name="ISO3166_1_numeric"></SimpleData>
		<SimpleData name="according_to_RU"></SimpleData>
		<SimpleData name="according_to_UA"></SimpleData>
		<SimpleData name="alt_name_eo"></SimpleData>
		<SimpleData name="alt_name_vi"></SimpleData>
		<SimpleData name="default_language"></SimpleData>
		<SimpleData name="flag"></SimpleData>
		<SimpleData name="int_name"></SimpleData>
		<SimpleData name="name_ab"></SimpleData>
		<SimpleData name="name_ace"></SimpleData>
		<SimpleData name="name_af"></SimpleData>
		<SimpleData name="name_als"></SimpleData>
		<SimpleData name="name_am"></SimpleData>
		<SimpleData name="name_an"></SimpleData>
		<SimpleData name="name_ang"></SimpleData>
		<SimpleData name="name_arc"></SimpleData>
		<SimpleData name="name_arz"></SimpleData>
		<SimpleData name="name_ast"></SimpleData>
		<SimpleData name="name_ba"></SimpleData>
		<SimpleData name="name_bar"></SimpleData>
		<SimpleData name="name_bat_smg"></SimpleData>
		<SimpleData name="name_bcl"></SimpleData>
		<SimpleData name="name_bi"></SimpleData>
		<SimpleData name="name_bn"></SimpleData>
		<SimpleData name="name_bo"></SimpleData>
		<SimpleData name="name_bpy"></SimpleData>
		<SimpleData name="name_br"></SimpleData>
		<SimpleData name="name_bs"></SimpleData>
		<SimpleData name="name_bxr"></SimpleData>
		<SimpleData name="name_cbk_zam"></SimpleData>
		<SimpleData name="name_cdo"></SimpleData>
		<SimpleData name="name_ce"></SimpleData>
		<SimpleData name="name_ceb"></SimpleData>
		<SimpleData name="name_chr"></SimpleData>
		<SimpleData name="name_chy"></SimpleData>
		<SimpleData name="name_ckb"></SimpleData>
		<SimpleData name="name_cnr"></SimpleData>
	</SchemaData></ExtendedData>
      <MultiGeometry><LineString><coordinates>37.891363,49.026726,0 37.888601,49.028839,0 37.885263,49.030739,0 37.881349,49.032427,0 37.876861,49.033902,0 37.871796,49.035164,0 37.866157,49.036214,0 37.859941,49.037051,0 37.85315,49.037675,0 37.845784,49.038087,0 37.838308,49.03857,0 37.830722,49.039126,0 37.823026,49.039754,0 37.815221,49.040453,0 37.807305,49.041225,0 37.79928,49.042068,0 37.791144,49.042984,0 37.782899,49.043972,0 37.77525,49.044644,0 37.768198,49.045001,0 37.761742,49.045042,0 37.755883,49.044767,0 37.75062,49.044177,0 37.745953,49.043272,0 37.741883,49.042051,0 37.738409,49.040515,0 37.734851,49.039109,0 37.73121,49.037833,0 37.727485,49.036687,0 37.723676,49.035672,0 37.719784,49.034787,0 37.715808,49.034033,0 37.711748,49.033409,0 37.707605,49.032915,0 37.703717,49.032434,0 37.700087,49.031968,0 37.696712,49.031515,0 37.693594,49.031076,0 37.690732,49.030651,0 37.688127,49.030239,0 37.685778,49.029841,0 37.683685,49.029457,0 37.681689,49.028966,0 37.67979,49.028367,0 37.677988,49.027661,0 37.676282,49.026848,0 37.674674,49.025928,0 37.673162,49.0249,0 37.671746,49.023766,0 37.670428,49.022524,0 37.669268,49.021443,0 37.668266,49.020524,0 37.667422,49.019766,0 37.666737,49.019169,0 37.66621,49.018733,0 37.665841,49.018458,0 37.665631,49.018345,0 37.665578,49.018393,0 37.665519,49.01845,0 37.665453,49.018517,0 37.66538,49.018593,0 37.6653,49.018678,0 37.665214,49.018772,0 37.66512,49.018875,0 37.66502,49.018988,0 37.664913,49.019109,0 37.664765,49.019222,0 37.664577,49.019325,0 37.664349,49.01942,0 37.664081,49.019504,0 37.663773,49.01958,0 37.663424,49.019647,0 37.663036,49.019704,0 37.662607,49.019752,0 37.662159,49.019794,0 37.661694,49.01983,0 37.66121,49.01986,0 37.660708,49.019884,0 37.660187,49.019902,0 37.659648,49.019914,0 37.659091,49.01992,0 37.658515,49.01992,0 37.657984,49.019929,0 37.657498,49.019948,0 37.657056,49.019977,0 37.656658,49.020014,0 37.656305,49.020062,0 37.655996,49.020118,0 37.655732,49.020184,0 37.655512,49.02026,0 37.655304,49.020357,0 37.655108,49.020475,0 37.654924,49.020615,0 37.654751,49.020776,0 37.65459,49.020959,0 37.654441,49.021163,0 37.654304,49.021388,0 37.654178,49.021635,0 37.65408,49.021879,0 37.654008,49.02212,0 37.653963,49.022358,0 37.653944,49.022594,0 37.653953,49.022826,0 37.653988,49.023055,0 37.65405,49.023281,0 37.654139,49.023504,0 37.654267,49.023731,0 37.654433,49.023964,0 37.654637,49.024201,0 37.654881,49.024443,0 37.655163,49.024689,0 37.655483,49.024941,0 37.655842,49.025197,0 37.65624,49.025457,0 37.656647,49.025718,0 37.657064,49.025977,0 37.657491,49.026237,0 37.657928,49.026496,0 37.658375,49.026754,0 37.658831,49.027013,0 37.659298,49.02727,0 37.659774,49.027528,0 37.660203,49.027777,0 37.660587,49.028019,0 37.660923,49.028253,0 37.661214,49.028479,0 37.661458,49.028698,0 37.661655,49.028909,0 37.661806,49.029112,0 37.661911,49.029308,0 37.661974,49.029508,0 37.661995,49.029712,0 37.661974,49.02992,0 37.661911,49.030133,0 37.661806,49.03035,0 37.66166,49.030571,0 37.661471,49.030797,0 37.661241,49.031026,0 37.660971,49.031249,0 37.660661,49.031463,0 37.660311,49.03167,0 37.659921,49.031869,0 37.659492,49.03206,0 37.659022,49.032243,0 37.658513,49.032419,0 37.657964,49.032587,0 37.657243,49.03278,0 37.656353,49.032998,0 37.655291,49.033241,0 37.654059,49.033508,0 37.652657,49.0338,0 37.651083,49.034118,0 37.649339,49.03446,0 37.647424,49.034827,0 37.64564,49.035163,0 37.643987,49.035468,0 37.642465,49.035743,0 37.641073,49.035986,0 37.639812,49.036199,0 37.638682,49.036381,0 37.637683,49.036532,0 37.636814,49.036652,0 37.63596,49.036757,0 37.635119,49.036847,0 37.634291,49.036922,0 37.633478,49.036982,0 37.632678,49.037027,0 37.631892,49.037057,0 37.63112,49.037072,0 37.630361,49.037072,0 37.629675,49.037085,0 37.629062,49.037112,0 37.628521,49.037151,0 37.628053,49.037205,0 37.627657,49.037271,0 37.627334,49.037351,0 37.627083,49.037444,0 37.626906,49.03755,0 37.626735,49.037677,0 37.626573,49.037825,0 37.626419,49.037993,0 37.626272,49.038181,0 37.626134,49.03839,0 37.626003,49.03862,0 37.62588,49.038871,0 37.625765,49.039142,0 37.625649,49.039427,0 37.625533,49.039728,0 37.625416,49.040044,0 37.625298,49.040375,0 37.62518,49.040721,0 37.625061,49.041082,0 37.624941,49.041458,0 37.624821,49.041849,0 37.62467,49.042214,0 37.624488,49.042551,0 37.624275,49.042863,0 37.624032,49.043147,0 37.623758,49.043405,0 37.623453,49.043637,0 37.623118,49.043842,0 37.622752,49.04402,0 37.622361,49.044178,0 37.621947,49.044316,0 37.621508,49.044434,0 37.621045,49.044532,0 37.620557,49.044609,0 37.620046,49.044667,0 37.61951,49.044704,0 37.618951,49.044721,0 37.618399,49.044732,0 37.617855,49.044737,0 37.617318,49.044737,0 37.61679,49.04473,0 37.616269,49.044717,0 37.615757,49.044698,0 37.615252,49.044673,0 37.614755,49.044642,0 37.614249,49.044623,0 37.613735,49.044614,0 37.613213,49.044617,0 37.612682,49.04463,0 37.612142,49.044655,0 37.611594,49.044691,0 37.611038,49.044738,0 37.610473,49.044797,0 37.609937,49.044849,0 37.609431,49.044895,0 37.608954,49.044936,0 37.608507,49.04497,0 37.608089,49.044998,0 37.607701,49.04502,0 37.607342,49.045037,0 37.607012,49.045047,0 37.606638,49.045042,0 37.606219,49.045023,0 37.605756,49.044988,0 37.605249,49.044938,0 37.604697,49.044873,0 37.604101,49.044794,0 37.60346,49.044699,0 37.602774,49.044589,0 37.601989,49.044433,0 37.601103,49.04423,0 37.600118,49.04398,0 37.599032,49.043683,0 37.597847,49.04334,0 37.596561,49.04295,0 37.595175,49.042513,0 37.593689,49.042029,0 37.592295,49.041571,0 37.590992,49.041138,0 37.589781,49.04073,0 37.588662,49.040348,0 37.587634,49.039991,0 37.586697,49.039659,0 37.585852,49.039352,0 37.585099,49.039071,0 37.584385,49.03886,0 37.58371,49.03872,0 37.583074,49.038649,0 37.582478,49.038649,0 37.581921,49.03872,0 37.581403,49.03886,0 37.580924,49.039071,0 37.580485,49.039352,0 37.580075,49.039685,0 37.579696,49.040069,0 37.579347,49.040505,0 37.579028,49.040992,0 37.578739,49.04153,0 37.57848,49.04212,0 37.578251,49.042761,0 37.578052,49.043454,0 37.577833,49.044094,0 37.577595,49.044683,0 37.577338,49.045218,0 37.57706,49.045702,0 37.576764,49.046133,0 37.576447,49.046512,0 37.576111,49.046839,0 37.575755,49.047113,0 37.575526,49.047406,0 37.575424,49.047718,0 37.575449,49.048049,0 37.575601,49.048399,0 37.575879,49.048768,0 37.576285,49.049155,0 37.576817,49.049561,0 37.577476,49.049986,0 37.578181,49.050532,0 37.578932,49.051197,0 37.579729,49.051982,0 37.580571,49.052887,0 37.581459,49.053912,0 37.582393,49.055057,0 37.583373,49.056322,0 37.584398,49.057707,0 37.585881,49.059265,0 37.587822,49.060997,0 37.590221,49.062901,0 37.593077,49.064978,0 37.596392,49.067228,0 37.600164,49.069651,0 37.604393,49.072247,0 37.609081,49.075017,0 37.613157,49.077625,0 37.61662,49.080071,0 37.619471,49.082357,0 37.62171,49.084482,0 37.623337,49.086445,0 37.624352,49.088248,0 37.624755,49.089889,0 37.624546,49.091369,0 37.623808,49.093003,0 37.622542,49.094791,0 37.620748,49.096733,0 37.618425,49.09883,0 37.615574,49.10108,0 37.612194,49.103485,0 37.608286,49.106043,0 37.603849,49.108756,0 37.599978,49.11131,0 37.596671,49.113708,0 37.59393,49.115947,0 37.591754,49.11803,0 37.590142,49.119954,0 37.589096,49.121721,0 37.588615,49.12333,0 37.588698,49.124782,0 37.589781,49.126415,0 37.591864,49.128229,0 37.594945,49.130225,0 37.599026,49.132402,0 37.604106,49.13476,0 37.610185,49.1373,0 37.617263,49.140021,0 37.625341,49.142923,0 37.633471,49.145629,0 37.641654,49.148137,0 37.649888,49.150449,0 37.658175,49.152564,0 37.666515,49.154482,0 37.674906,49.156203,0 37.68335,49.157727,0 37.691847,49.159055,0 37.699299,49.160266,0 37.705708,49.161361,0 37.711073,49.162339,0 37.715395,49.163202,0 37.718672,49.163947,0 37.720906,49.164577,0 37.722096,49.16509,0 37.722243,49.165487,0 37.722722,49.16608,0 37.723532,49.166871,0 37.724676,49.167857,0 37.726151,49.169041,0 37.727958,49.170421,0 37.730098,49.171998,0 37.73257,49.173771,0 37.735374,49.175741,0 37.738084,49.177598,0 37.7407,49.179342,0 37.743222,49.180974,0 37.745649,49.182492,0 37.747983,49.183898,0 37.750222,49.185191,0 37.752367,49.18637,0 37.754418,49.187437,0 37.756312,49.188436,0 37.758049,49.189366,0 37.759629,49.190227,0 37.761052,49.191021,0 37.762318,49.191745,0 37.763427,49.192402,0 37.764379,49.19299,0 37.765174,49.19351,0 37.766121,49.193985,0 37.76722,49.194416,0 37.76847,49.194802,0 37.769872,49.195144,0 37.771426,49.195441,0 37.773132,49.195694,0 37.774989,49.195903,0 37.776998,49.196067,0 37.779111,49.196214,0 37.78133,49.196344,0 37.783653,49.196457,0 37.78608,49.196553,0 37.788612,49.196631,0 37.791249,49.196693,0 37.79399,49.196737,0 37.796836,49.196764,0 37.79985,49.19685,0 37.803031,49.196994,0 37.806379,49.197195,0 37.809895,49.197455,0 37.813578,49.197773,0 37.817428,49.198149,0 37.821446,49.198583,0 37.825632,49.199075,0 37.829472,49.199742,0 37.832967,49.200583,0 37.836116,49.201598,0 37.83892,49.202788,0 37.841379,49.204151,0 37.843493,49.205689,0 37.845261,49.207402,0 37.846684,49.209289,0 37.848316,49.211045,0 37.850158,49.212672,0 37.852209,49.214169,0 37.854469,49.215536,0 37.856938,49.216773,0 37.859617,49.217881,0 37.862505,49.218858,0 37.865602,49.219706,0 37.868443,49.220597,0 37.871027,49.221534,0 37.873355,49.222514,0 37.875427,49.223539,0 37.877242,49.224609,0 37.878802,49.225723,0 37.880104,49.226881,0 37.881151,49.228084,0 37.882301,49.229209,0 37.883555,49.230258,0 37.884913,49.23123,0 37.886376,49.232125,0 37.887942,49.232943,0 37.889612,49.233685,0 37.891386,49.234349,0 37.893265,49.234937,0 37.895124,49.235459,0 37.89559,49.235575,0</coordinates></LineString><LineString><coordinates>37.899394,49.019318,0 37.899134,49.019602,0 37.89663,49.022107,0 37.894039,49.024482,0 37.891363,49.026726,0</coordinates></LineString></MultiGeometry>
  </Placemark>
</Folder>
</Document></kml>
